
 PEER Ground Motion Database, Time Series Search Report -- NGA-West2 -- 2021-09-08


 -- Summary of PEER Ground Motion Database Search Criteria --
Magnitude Min:, 7.5
Magnitude Max:, 7.8
Rrup Min (km):, -1.0e-06
Rrup Max (km):, 99999
Rjb Min (km):, 100.0
Rjb Max (km):, 1000.0
Vs30 Min (m/sec):, -1.0e-06
Vs30 Max (m/sec):, 99999
D9-95 Min (sec):, -1.0e-06
D9-95 Max (sec):, 99999
Scale Factor Min:, -1.0e-06
Scale Factor Max:, 99999
Period Array:, 
Weight Array:, 
Record Sequence Number:, 
Earthquake Name:, chi-chi
Station Name:, 
User-Defined Maximum Number of Records:, 
Pulse:, 1
Damping Ratio:, 0.05
Scaling Method:, No Scaling
Suite Average:, Arithmetic
Single-Period-Scaling Period (sec):, 
Component:, SRSS
Fault Type:, All Types


 -- Summary of Metadata of Selected Records --
Result ID, Spectral Ordinate, Record Sequence Number, Mean Squared Error, Scale Factor, Tp-Pulse Period (sec), 5-75% Duration (sec), 5-95% Duration (sec), Arias Intensity (m/sec), Earthquake Name, Year, Station Name, Magnitude, Mechanism, Rjb (km), Rrup (km), Vs30 (m/sec), Lowest Useable Frequency (Hz), Initial-search Scale Factor, Horizontal-1 Acc. Filename, Horizontal-2 Acc. Filename, Vertical Acc. Filename
1, SRSS, 1307, -, 1.0, -, 14.2, 29.2, 0.0, "Chi-Chi_ Taiwan", 1999, "ILA001", 7.62, Reverse Oblique, 101.24, 103.2, 909.09, 0.0625, 1.0, RSN1307_CHICHI_ILA001-N.AT2, RSN1307_CHICHI_ILA001-W.AT2 , RSN1307_CHICHI_ILA001-V.AT2  
2, SRSS, 1341, -, 1.0, -, 14.2, 25.3, 0.0, "Chi-Chi_ Taiwan", 1999, "ILA054", 7.62, Reverse Oblique, 114.27, 116.01, 677.3, 0.025, 1.0, RSN1341_CHICHI_ILA054-N.AT2, RSN1341_CHICHI_ILA054-W.AT2 , RSN1341_CHICHI_ILA054-V.AT2  
3, SRSS, 1352, -, 1.0, -, 39.6, 70.6, 0.0, "Chi-Chi_ Taiwan", 1999, "KAU003", 7.62, Reverse Oblique, 113.39, 114.44, 913.77, 0.025, 1.0, RSN1352_CHICHI_KAU003-N.AT2, RSN1352_CHICHI_KAU003-W.AT2 , RSN1352_CHICHI_KAU003-V.AT2  
4, SRSS, 1353, -, 1.0, -, 38.9, 51.5, 0.1, "Chi-Chi_ Taiwan", 1999, "KAU006", 7.62, Reverse Oblique, 113.37, 114.92, 218.49, 0.025, 1.0, RSN1353_CHICHI_KAU006-E.AT2, RSN1353_CHICHI_KAU006-N.AT2 , RSN1353_CHICHI_KAU006-V.AT2  
5, SRSS, 1354, -, 1.0, -, 34.7, 49.7, 0.1, "Chi-Chi_ Taiwan", 1999, "KAU007", 7.62, Reverse Oblique, 105.92, 107.57, 290.86, 0.05, 1.0, RSN1354_CHICHI_KAU007-E.AT2, RSN1354_CHICHI_KAU007-N.AT2 , RSN1354_CHICHI_KAU007-V.AT2  
6, SRSS, 1355, -, 1.0, -, 35.0, 46.0, 0.1, "Chi-Chi_ Taiwan", 1999, "KAU008", 7.62, Reverse Oblique, 107.02, 108.75, 285.94, 0.025, 1.0, RSN1355_CHICHI_KAU008-E.AT2, RSN1355_CHICHI_KAU008-N.AT2 , RSN1355_CHICHI_KAU008-V.AT2  
7, SRSS, 1357, -, 1.0, -, 31.4, 43.3, 0.1, "Chi-Chi_ Taiwan", 1999, "KAU011", 7.62, Reverse Oblique, 101.23, 101.85, 155.32, 0.05, 1.0, RSN1357_CHICHI_KAU011-E.AT2, RSN1357_CHICHI_KAU011-N.AT2 , RSN1357_CHICHI_KAU011-V.AT2  
8, SRSS, 1359, -, 1.0, -, 34.7, 48.2, 0.1, "Chi-Chi_ Taiwan", 1999, "KAU015", 7.62, Reverse Oblique, 106.51, 107.97, 233.21, 0.025, 1.0, RSN1359_CHICHI_KAU015-E.AT2, RSN1359_CHICHI_KAU015-N.AT2 , RSN1359_CHICHI_KAU015-V.AT2  
9, SRSS, 1363, -, 1.0, -, 28.9, 46.2, 0.1, "Chi-Chi_ Taiwan", 1999, "KAU030", 7.62, Reverse Oblique, 100.12, 102.09, 259.36, 0.025, 1.0, RSN1363_CHICHI_KAU030-E.AT2, RSN1363_CHICHI_KAU030-N.AT2 , RSN1363_CHICHI_KAU030-V.AT2  
10, SRSS, 1364, -, 1.0, -, 34.4, 46.1, 0.1, "Chi-Chi_ Taiwan", 1999, "KAU032", 7.62, Reverse Oblique, 111.02, 112.81, 194.13, 0.275, 1.0, RSN1364_CHICHI_KAU032-E.AT2, RSN1364_CHICHI_KAU032-N.AT2 , RSN1364_CHICHI_KAU032-V.AT2  
11, SRSS, 1365, -, 1.0, -, 38.3, 50.6, 0.1, "Chi-Chi_ Taiwan", 1999, "KAU033", 7.62, Reverse Oblique, 119.31, 120.97, 182.93, 0.025, 1.0, RSN1365_CHICHI_KAU033-E.AT2, RSN1365_CHICHI_KAU033-N.AT2 , RSN1365_CHICHI_KAU033-V.AT2  
12, SRSS, 1366, -, 1.0, -, 29.6, 36.4, 0.0, "Chi-Chi_ Taiwan", 1999, "KAU034", 7.62, Reverse Oblique, 106.72, 108.58, 1010.4, 0.0625, 1.0, RSN1366_CHICHI_KAU034-E.AT2, RSN1366_CHICHI_KAU034-N.AT2 , RSN1366_CHICHI_KAU034-V.AT2  
13, SRSS, 1367, -, 1.0, -, 28.8, 37.3, 0.0, "Chi-Chi_ Taiwan", 1999, "KAU037", 7.62, Reverse Oblique, 135.0, 136.47, 283.21, 0.025, 1.0, RSN1367_CHICHI_KAU037-E.AT2, RSN1367_CHICHI_KAU037-N.AT2 , RSN1367_CHICHI_KAU037-V.AT2  
14, SRSS, 1368, -, 1.0, -, 30.8, 40.9, 0.0, "Chi-Chi_ Taiwan", 1999, "KAU038", 7.62, Reverse Oblique, 141.79, 143.2, 667.59, 0.375, 1.0, RSN1368_CHICHI_KAU038-E.AT2, RSN1368_CHICHI_KAU038-N.AT2 , RSN1368_CHICHI_KAU038-V.AT2  
15, SRSS, 1369, -, 1.0, -, 26.8, 33.5, 0.0, "Chi-Chi_ Taiwan", 1999, "KAU039", 7.62, Reverse Oblique, 151.33, 152.65, 464.82, 0.025, 1.0, RSN1369_CHICHI_KAU039-E.AT2, RSN1369_CHICHI_KAU039-N.AT2 , RSN1369_CHICHI_KAU039-V.AT2  
16, SRSS, 1370, -, 1.0, -, 24.3, 33.8, 0.0, "Chi-Chi_ Taiwan", 1999, "KAU040", 7.62, Reverse Oblique, 140.09, 141.51, 567.64, 0.05, 1.0, RSN1370_CHICHI_KAU040-E.AT2, RSN1370_CHICHI_KAU040-N.AT2 , RSN1370_CHICHI_KAU040-V.AT2  
17, SRSS, 1371, -, 1.0, -, 26.9, 38.2, 0.0, "Chi-Chi_ Taiwan", 1999, "KAU042", 7.62, Reverse Oblique, 158.96, 160.21, 806.48, 0.025, 1.0, RSN1371_CHICHI_KAU042-E.AT2, RSN1371_CHICHI_KAU042-N.AT2 , RSN1371_CHICHI_KAU042-V.AT2  
18, SRSS, 1372, -, 1.0, -, 33.5, 42.7, 0.0, "Chi-Chi_ Taiwan", 1999, "KAU043", 7.62, Reverse Oblique, 170.99, 172.16, 538.49, 0.025, 1.0, RSN1372_CHICHI_KAU043-E.AT2, RSN1372_CHICHI_KAU043-N.AT2 , RSN1372_CHICHI_KAU043-V.AT2  
19, SRSS, 1373, -, 1.0, -, 30.4, 43.6, 0.1, "Chi-Chi_ Taiwan", 1999, "KAU044", 7.62, Reverse Oblique, 119.96, 121.61, 221.24, 0.025, 1.0, RSN1373_CHICHI_KAU044-E.AT2, RSN1373_CHICHI_KAU044-N.AT2 , RSN1373_CHICHI_KAU044-V.AT2  
20, SRSS, 1374, -, 1.0, -, 31.5, 43.0, 0.0, "Chi-Chi_ Taiwan", 1999, "KAU046", 7.62, Reverse Oblique, 161.62, 162.86, 204.23, 0.025, 1.0, RSN1374_CHICHI_KAU046-E.AT2, RSN1374_CHICHI_KAU046-N.AT2 , RSN1374_CHICHI_KAU046-V.AT2  
21, SRSS, 1378, -, 1.0, -, 31.6, 38.4, 0.0, "Chi-Chi_ Taiwan", 1999, "KAU051", 7.62, Reverse Oblique, 123.56, 125.17, 1004.58, 0.125, 1.0, RSN1378_CHICHI_KAU051-E.AT2, RSN1378_CHICHI_KAU051-N.AT2 , RSN1378_CHICHI_KAU051-V.AT2  
22, SRSS, 1379, -, 1.0, -, 24.4, 26.7, 0.0, "Chi-Chi_ Taiwan", 1999, "KAU052", 7.62, Reverse Oblique, 167.9, 169.09, 573.04, 0.0375, 1.0, RSN1379_CHICHI_KAU052-E.AT2, RSN1379_CHICHI_KAU052-N.AT2 , RSN1379_CHICHI_KAU052-V.AT2  
23, SRSS, 1381, -, 1.0, -, 38.8, 52.7, 0.0, "Chi-Chi_ Taiwan", 1999, "KAU057", 7.62, Reverse Oblique, 112.48, 113.54, 535.13, 0.0375, 1.0, RSN1381_CHICHI_KAU057-E.AT2, RSN1381_CHICHI_KAU057-N.AT2 , RSN1381_CHICHI_KAU057-V.AT2  
24, SRSS, 1382, -, 1.0, -, 35.0, 46.5, 0.1, "Chi-Chi_ Taiwan", 1999, "KAU058", 7.62, Reverse Oblique, 107.77, 109.17, 229.66, 0.0375, 1.0, RSN1382_CHICHI_KAU058-E.AT2, RSN1382_CHICHI_KAU058-N.AT2 , RSN1382_CHICHI_KAU058-V.AT2  
25, SRSS, 1383, -, 1.0, -, 30.7, 44.2, 0.1, "Chi-Chi_ Taiwan", 1999, "KAU062", 7.62, Reverse Oblique, 112.23, 113.46, 246.84, 0.025, 1.0, RSN1383_CHICHI_KAU062-E.AT2, RSN1383_CHICHI_KAU062-N.AT2 , RSN1383_CHICHI_KAU062-V.AT2  
26, SRSS, 1385, -, 1.0, -, 33.7, 48.1, 0.1, "Chi-Chi_ Taiwan", 1999, "KAU064", 7.62, Reverse Oblique, 100.04, 100.51, 244.84, 0.0375, 1.0, RSN1385_CHICHI_KAU064-E.AT2, RSN1385_CHICHI_KAU064-N.AT2 , RSN1385_CHICHI_KAU064-V.AT2  
27, SRSS, 1388, -, 1.0, -, 31.9, 39.6, 0.1, "Chi-Chi_ Taiwan", 1999, "KAU073", 7.62, Reverse Oblique, 108.84, 110.67, 216.33, 0.025, 1.0, RSN1388_CHICHI_KAU073-E.AT2, RSN1388_CHICHI_KAU073-N.AT2 , RSN1388_CHICHI_KAU073-V.AT2  
28, SRSS, 1389, -, 1.0, -, 32.7, 42.8, 0.1, "Chi-Chi_ Taiwan", 1999, "KAU074", 7.62, Reverse Oblique, 103.68, 105.59, 228.34, 0.0375, 1.0, RSN1389_CHICHI_KAU074-E.AT2, RSN1389_CHICHI_KAU074-N.AT2 , RSN1389_CHICHI_KAU074-V.AT2  
29, SRSS, 1390, -, 1.0, -, 33.3, 41.8, 0.1, "Chi-Chi_ Taiwan", 1999, "KAU075", 7.62, Reverse Oblique, 114.84, 116.57, 196.3, 0.025, 1.0, RSN1390_CHICHI_KAU075-E.AT2, RSN1390_CHICHI_KAU075-N.AT2 , RSN1390_CHICHI_KAU075-V.AT2  
30, SRSS, 1393, -, 1.0, -, 30.5, 43.4, 0.0, "Chi-Chi_ Taiwan", 1999, "KAU081", 7.62, Reverse Oblique, 161.2, 162.43, 295.0, 0.025, 1.0, RSN1393_CHICHI_KAU081-E.AT2, RSN1393_CHICHI_KAU081-N.AT2 , RSN1393_CHICHI_KAU081-V.AT2  
31, SRSS, 1394, -, 1.0, -, 35.2, 52.1, 0.0, "Chi-Chi_ Taiwan", 1999, "KAU082", 7.62, Reverse Oblique, 168.72, 169.9, 573.04, 0.025, 1.0, RSN1394_CHICHI_KAU082-E.AT2, RSN1394_CHICHI_KAU082-N.AT2 , RSN1394_CHICHI_KAU082-V.AT2  
32, SRSS, 1395, -, 1.0, -, 31.5, 48.8, 0.1, "Chi-Chi_ Taiwan", 1999, "KAU083", 7.62, Reverse Oblique, 109.14, 110.95, 202.14, 0.025, 1.0, RSN1395_CHICHI_KAU083-E.AT2, RSN1395_CHICHI_KAU083-N.AT2 , RSN1395_CHICHI_KAU083-V.AT2  
33, SRSS, 1398, -, 1.0, -, 49.7, 76.2, 0.1, "Chi-Chi_ Taiwan", 1999, "KAU087", 7.62, Reverse Oblique, 111.67, 113.13, 276.11, 0.025, 1.0, RSN1398_CHICHI_KAU087-N.AT2, RSN1398_CHICHI_KAU087-W.AT2 , RSN1398_CHICHI_KAU087-V.AT2  
34, SRSS, 1399, -, 1.0, -, 40.9, 69.8, 0.1, "Chi-Chi_ Taiwan", 1999, "KAU088", 7.62, Reverse Oblique, 108.91, 110.22, 227.46, 0.0375, 1.0, RSN1399_CHICHI_KAU088-N.AT2, RSN1399_CHICHI_KAU088-W.AT2 , RSN1399_CHICHI_KAU088-V.AT2  
35, SRSS, 1404, -, 1.0, -, 24.0, 32.0, 0.0, "Chi-Chi_ Taiwan", 1999, "PNG", 7.62, Reverse Oblique, 110.3, 110.3, 465.86, 0.3, 1.0, RSN1404_CHICHI_PNG-E.AT2, RSN1404_CHICHI_PNG-N.AT2 , RSN1404_CHICHI_PNG-V.AT2  
36, SRSS, 1410, -, 1.0, -, 13.9, 31.0, 0.6, "Chi-Chi_ Taiwan", 1999, "TAP003", 7.62, Reverse Oblique, 101.27, 102.39, 212.39, 0.05, 1.0, RSN1410_CHICHI_TAP003-N.AT2, RSN1410_CHICHI_TAP003-E.AT2 , RSN1410_CHICHI_TAP003-V.AT2  
37, SRSS, 1411, -, 1.0, -, 13.7, 31.8, 0.4, "Chi-Chi_ Taiwan", 1999, "TAP005", 7.62, Reverse Oblique, 105.44, 106.87, 179.84, 0.05, 1.0, RSN1411_CHICHI_TAP005-N.AT2, RSN1411_CHICHI_TAP005-E.AT2 , RSN1411_CHICHI_TAP005-V.AT2  
38, SRSS, 1412, -, 1.0, -, 13.6, 23.2, 0.3, "Chi-Chi_ Taiwan", 1999, "TAP006", 7.62, Reverse Oblique, 104.16, 105.66, 184.77, 0.025, 1.0, RSN1412_CHICHI_TAP006-N.AT2, RSN1412_CHICHI_TAP006-E.AT2 , RSN1412_CHICHI_TAP006-V.AT2  
39, SRSS, 1413, -, 1.0, -, 13.0, 29.1, 0.3, "Chi-Chi_ Taiwan", 1999, "TAP007", 7.62, Reverse Oblique, 102.16, 103.73, 207.39, 0.0375, 1.0, RSN1413_CHICHI_TAP007-S.AT2, RSN1413_CHICHI_TAP007-W.AT2 , RSN1413_CHICHI_TAP007-V.AT2  
40, SRSS, 1414, -, 1.0, -, 22.6, 47.1, 0.2, "Chi-Chi_ Taiwan", 1999, "TAP008", 7.62, Reverse Oblique, 102.84, 104.52, 194.14, 0.05, 1.0, RSN1414_CHICHI_TAP008-N.AT2, RSN1414_CHICHI_TAP008-E.AT2 , RSN1414_CHICHI_TAP008-V.AT2  
41, SRSS, 1416, -, 1.0, -, 14.5, 29.8, 0.2, "Chi-Chi_ Taiwan", 1999, "TAP012", 7.62, Reverse Oblique, 100.11, 101.76, 207.99, 0.0375, 1.0, RSN1416_CHICHI_TAP012-N.AT2, RSN1416_CHICHI_TAP012-E.AT2 , RSN1416_CHICHI_TAP012-V.AT2  
42, SRSS, 1417, -, 1.0, -, 18.4, 32.4, 0.2, "Chi-Chi_ Taiwan", 1999, "TAP013", 7.62, Reverse Oblique, 100.84, 102.59, 205.11, 0.0375, 1.0, RSN1417_CHICHI_TAP013-N.AT2, RSN1417_CHICHI_TAP013-E.AT2 , RSN1417_CHICHI_TAP013-V.AT2  
43, SRSS, 1418, -, 1.0, -, 16.7, 40.3, 0.3, "Chi-Chi_ Taiwan", 1999, "TAP014", 7.62, Reverse Oblique, 101.63, 103.45, 188.98, 0.05, 1.0, RSN1418_CHICHI_TAP014-N.AT2, RSN1418_CHICHI_TAP014-E.AT2 , RSN1418_CHICHI_TAP014-V.AT2  
44, SRSS, 1429, -, 1.0, -, 16.2, 29.6, 0.2, "Chi-Chi_ Taiwan", 1999, "TAP041", 7.62, Reverse Oblique, 110.28, 110.9, 363.56, 0.025, 1.0, RSN1429_CHICHI_TAP041-E.AT2, RSN1429_CHICHI_TAP041-N.AT2 , RSN1429_CHICHI_TAP041-V.AT2  
45, SRSS, 1430, -, 1.0, -, 16.2, 32.0, 0.2, "Chi-Chi_ Taiwan", 1999, "TAP042", 7.62, Reverse Oblique, 105.49, 106.48, 375.85, 0.025, 1.0, RSN1430_CHICHI_TAP042-E.AT2, RSN1430_CHICHI_TAP042-N.AT2 , RSN1430_CHICHI_TAP042-V.AT2  
46, SRSS, 1432, -, 1.0, -, 18.4, 28.7, 0.1, "Chi-Chi_ Taiwan", 1999, "TAP046", 7.62, Reverse Oblique, 116.64, 118.34, 816.9, 0.025, 1.0, RSN1432_CHICHI_TAP046-E.AT2, RSN1432_CHICHI_TAP046-N.AT2 , RSN1432_CHICHI_TAP046-V.AT2  
47, SRSS, 1434, -, 1.0, -, 16.7, 28.9, 0.3, "Chi-Chi_ Taiwan", 1999, "TAP049", 7.62, Reverse Oblique, 107.28, 108.1, 573.04, 0.0375, 1.0, RSN1434_CHICHI_TAP049-E.AT2, RSN1434_CHICHI_TAP049-N.AT2 , RSN1434_CHICHI_TAP049-V.AT2  
48, SRSS, 1435, -, 1.0, -, 12.1, 26.0, 0.2, "Chi-Chi_ Taiwan", 1999, "TAP051", 7.62, Reverse Oblique, 102.46, 103.46, 403.17, 0.025, 1.0, RSN1435_CHICHI_TAP051-E.AT2, RSN1435_CHICHI_TAP051-N.AT2 , RSN1435_CHICHI_TAP051-V.AT2  
49, SRSS, 1438, -, 1.0, -, 21.0, 32.2, 0.0, "Chi-Chi_ Taiwan", 1999, "TAP059", 7.62, Reverse Oblique, 117.61, 119.3, 456.18, 0.025, 1.0, RSN1438_CHICHI_TAP059-E.AT2, RSN1438_CHICHI_TAP059-N.AT2 , RSN1438_CHICHI_TAP059-V.AT2  
50, SRSS, 1439, -, 1.0, -, 17.6, 23.5, 0.0, "Chi-Chi_ Taiwan", 1999, "TAP060", 7.62, Reverse Oblique, 119.49, 121.15, 631.27, 0.025, 1.0, RSN1439_CHICHI_TAP060-E.AT2, RSN1439_CHICHI_TAP060-N.AT2 , RSN1439_CHICHI_TAP060-V.AT2  
51, SRSS, 1440, -, 1.0, -, 14.1, 23.4, 0.0, "Chi-Chi_ Taiwan", 1999, "TAP065", 7.62, Reverse Oblique, 120.84, 122.48, 1023.45, 0.05, 1.0, RSN1440_CHICHI_TAP065-E.AT2, RSN1440_CHICHI_TAP065-N.AT2 , RSN1440_CHICHI_TAP065-V.AT2  
52, SRSS, 1441, -, 1.0, -, 10.1, 22.1, 0.1, "Chi-Chi_ Taiwan", 1999, "TAP066", 7.62, Reverse Oblique, 114.15, 115.34, 662.78, 0.0375, 1.0, RSN1441_CHICHI_TAP066-E.AT2, RSN1441_CHICHI_TAP066-N.AT2 , RSN1441_CHICHI_TAP066-V.AT2  
53, SRSS, 1443, -, 1.0, -, 15.8, 24.6, 0.0, "Chi-Chi_ Taiwan", 1999, "TAP069", 7.62, Reverse Oblique, 121.94, 123.57, 671.52, 0.0625, 1.0, RSN1443_CHICHI_TAP069-E.AT2, RSN1443_CHICHI_TAP069-N.AT2 , RSN1443_CHICHI_TAP069-V.AT2  
54, SRSS, 1445, -, 1.0, -, 15.8, 24.2, 0.1, "Chi-Chi_ Taiwan", 1999, "TAP075", 7.62, Reverse Oblique, 107.42, 109.27, 856.38, 0.025, 1.0, RSN1445_CHICHI_TAP075-N.AT2, RSN1445_CHICHI_TAP075-W.AT2 , RSN1445_CHICHI_TAP075-V.AT2  
55, SRSS, 1446, -, 1.0, -, 11.5, 19.2, 0.0, "Chi-Chi_ Taiwan", 1999, "TAP077", 7.62, Reverse Oblique, 117.31, 119.0, 1022.77, 0.025, 1.0, RSN1446_CHICHI_TAP077-N.AT2, RSN1446_CHICHI_TAP077-W.AT2 , RSN1446_CHICHI_TAP077-V.AT2  
56, SRSS, 1447, -, 1.0, -, 19.8, 27.8, 0.0, "Chi-Chi_ Taiwan", 1999, "TAP078", 7.62, Reverse Oblique, 118.29, 119.97, 671.52, 0.05, 1.0, RSN1447_CHICHI_TAP078-N.AT2, RSN1447_CHICHI_TAP078-W.AT2 , RSN1447_CHICHI_TAP078-V.AT2  
57, SRSS, 1448, -, 1.0, -, 15.8, 29.5, 0.0, "Chi-Chi_ Taiwan", 1999, "TAP079", 7.62, Reverse Oblique, 117.67, 119.35, 631.27, 0.05, 1.0, RSN1448_CHICHI_TAP079-N.AT2, RSN1448_CHICHI_TAP079-W.AT2 , RSN1448_CHICHI_TAP079-V.AT2  
58, SRSS, 1449, -, 1.0, -, 11.5, 24.9, 0.0, "Chi-Chi_ Taiwan", 1999, "TAP081", 7.62, Reverse Oblique, 122.24, 123.86, 671.52, 0.025, 1.0, RSN1449_CHICHI_TAP081-N.AT2, RSN1449_CHICHI_TAP081-W.AT2 , RSN1449_CHICHI_TAP081-V.AT2  
59, SRSS, 1450, -, 1.0, -, 13.5, 38.5, 0.1, "Chi-Chi_ Taiwan", 1999, "TAP083", 7.62, Reverse Oblique, 120.91, 121.7, 435.22, 0.0375, 1.0, RSN1450_CHICHI_TAP083-N.AT2, RSN1450_CHICHI_TAP083-W.AT2 , RSN1450_CHICHI_TAP083-V.AT2  
60, SRSS, 1451, -, 1.0, -, 25.5, 43.1, 0.1, "Chi-Chi_ Taiwan", 1999, "TAP084", 7.62, Reverse Oblique, 122.13, 123.71, 224.22, 0.025, 1.0, RSN1451_CHICHI_TAP084-N.AT2, RSN1451_CHICHI_TAP084-W.AT2 , RSN1451_CHICHI_TAP084-V.AT2  
61, SRSS, 1453, -, 1.0, -, 12.1, 29.3, 0.1, "Chi-Chi_ Taiwan", 1999, "TAP087", 7.62, Reverse Oblique, 101.7, 102.56, 573.04, 0.0375, 1.0, RSN1453_CHICHI_TAP087-E.AT2, RSN1453_CHICHI_TAP087-N.AT2 , RSN1453_CHICHI_TAP087-V.AT2  
62, SRSS, 1454, -, 1.0, -, 18.5, 29.1, 0.4, "Chi-Chi_ Taiwan", 1999, "TAP090", 7.62, Reverse Oblique, 103.65, 105.56, 324.38, 0.0375, 1.0, RSN1454_CHICHI_TAP090-N.AT2, RSN1454_CHICHI_TAP090-E.AT2 , RSN1454_CHICHI_TAP090-V.AT2  
63, SRSS, 1455, -, 1.0, -, 11.3, 32.7, 0.2, "Chi-Chi_ Taiwan", 1999, "TAP094", 7.62, Reverse Oblique, 107.88, 108.95, 416.34, 0.0375, 1.0, RSN1455_CHICHI_TAP094-N.AT2, RSN1455_CHICHI_TAP094-E.AT2 , RSN1455_CHICHI_TAP094-V.AT2  
64, SRSS, 1456, -, 1.0, -, 11.8, 21.0, 0.5, "Chi-Chi_ Taiwan", 1999, "TAP095", 7.62, Reverse Oblique, 107.8, 109.0, 206.24, 0.0375, 1.0, RSN1456_CHICHI_TAP095-N.AT2, RSN1456_CHICHI_TAP095-E.AT2 , RSN1456_CHICHI_TAP095-V.AT2  
65, SRSS, 1458, -, 1.0, -, 19.8, 27.7, 0.1, "Chi-Chi_ Taiwan", 1999, "TAP098", 7.62, Reverse Oblique, 106.11, 107.75, 538.69, 0.025, 1.0, RSN1458_CHICHI_TAP098-N.AT2, RSN1458_CHICHI_TAP098-E.AT2 , RSN1458_CHICHI_TAP098-V.AT2  
66, SRSS, 1460, -, 1.0, -, 9.8, 15.5, 0.6, "Chi-Chi_ Taiwan", 1999, "TAP103", 7.62, Reverse Oblique, 114.28, 116.02, 429.49, 0.0375, 1.0, RSN1460_CHICHI_TAP103-E.AT2, RSN1460_CHICHI_TAP103-N.AT2 , RSN1460_CHICHI_TAP103-V.AT2  
67, SRSS, 1571, -, 1.0, -, 25.3, 36.2, 0.0, "Chi-Chi_ Taiwan", 1999, "TTN016", 7.62, Reverse Oblique, 121.45, 123.09, 826.15, 0.05, 1.0, RSN1571_CHICHI_TTN016-E.AT2, RSN1571_CHICHI_TTN016-N.AT2 , RSN1571_CHICHI_TTN016-V.AT2  

 These records were obtained from the NGA-West2 On-Line Ground-Motion Database Tool
 These records are UNSCALED, AS RECORDED
 Filename Extension: 
   ,AT2 = Acceleration
   ,VT2 = Velocity
   ,DT2 = Displacement
 The users of the NGA-West2 databases, flatfiles, models and reports are requested to acknowledge the Pacific Earthquake Engineering Research Center (PEER) in their work and publications.

 -- Scaled Spectra used in Search & Scaling --
Period (sec),Arithmetic Mean pSa (g),Arithmetic Mean + Sigma pSa (g),Arithmetic Mean - Sigma pSa (g),RSN-1307 SRSS pSa (g),RSN-1341 SRSS pSa (g),RSN-1352 SRSS pSa (g),RSN-1353 SRSS pSa (g),RSN-1354 SRSS pSa (g),RSN-1355 SRSS pSa (g),RSN-1357 SRSS pSa (g),RSN-1359 SRSS pSa (g),RSN-1363 SRSS pSa (g),RSN-1364 SRSS pSa (g),RSN-1365 SRSS pSa (g),RSN-1366 SRSS pSa (g),RSN-1367 SRSS pSa (g),RSN-1368 SRSS pSa (g),RSN-1369 SRSS pSa (g),RSN-1370 SRSS pSa (g),RSN-1371 SRSS pSa (g),RSN-1372 SRSS pSa (g),RSN-1373 SRSS pSa (g),RSN-1374 SRSS pSa (g),RSN-1378 SRSS pSa (g),RSN-1379 SRSS pSa (g),RSN-1381 SRSS pSa (g),RSN-1382 SRSS pSa (g),RSN-1383 SRSS pSa (g),RSN-1385 SRSS pSa (g),RSN-1388 SRSS pSa (g),RSN-1389 SRSS pSa (g),RSN-1390 SRSS pSa (g),RSN-1393 SRSS pSa (g),RSN-1394 SRSS pSa (g),RSN-1395 SRSS pSa (g),RSN-1398 SRSS pSa (g),RSN-1399 SRSS pSa (g),RSN-1404 SRSS pSa (g),RSN-1410 SRSS pSa (g),RSN-1411 SRSS pSa (g),RSN-1412 SRSS pSa (g),RSN-1413 SRSS pSa (g),RSN-1414 SRSS pSa (g),RSN-1416 SRSS pSa (g),RSN-1417 SRSS pSa (g),RSN-1418 SRSS pSa (g),RSN-1429 SRSS pSa (g),RSN-1430 SRSS pSa (g),RSN-1432 SRSS pSa (g),RSN-1434 SRSS pSa (g),RSN-1435 SRSS pSa (g),RSN-1438 SRSS pSa (g),RSN-1439 SRSS pSa (g),RSN-1440 SRSS pSa (g),RSN-1441 SRSS pSa (g),RSN-1443 SRSS pSa (g),RSN-1445 SRSS pSa (g),RSN-1446 SRSS pSa (g),RSN-1447 SRSS pSa (g),RSN-1448 SRSS pSa (g),RSN-1449 SRSS pSa (g),RSN-1450 SRSS pSa (g),RSN-1451 SRSS pSa (g),RSN-1453 SRSS pSa (g),RSN-1454 SRSS pSa (g),RSN-1455 SRSS pSa (g),RSN-1456 SRSS pSa (g),RSN-1458 SRSS pSa (g),RSN-1460 SRSS pSa (g),RSN-1571 SRSS pSa (g)
0.01,0.06489078,0.13388309,0.03145143,0.03411751,0.03600219,0.02727516,0.03317874,0.03499446,0.03949954,0.07982606,0.04090355,0.0512686,0.04719623,0.03281641,0.01244735,0.03120814,0.0124774,0.0141719,0.01094606,0.01526695,0.0222005,0.0512603,0.03230082,0.01259096,0.01282036,0.02220536,0.03356088,0.04397181,0.05340236,0.04004496,0.04140223,0.05148285,0.0332925,0.02643959,0.03733615,0.04238479,0.03846645,0.04503575,0.16856835,0.15366141,0.12266832,0.12922712,0.09620071,0.11258088,0.11682719,0.12959902,0.10748659,0.13118498,0.09939387,0.13840487,0.13041709,0.05028984,0.05046738,0.04746116,0.08819755,0.04455614,0.09688489,0.04542044,0.05868313,0.03414128,0.0379018,0.07252085,0.04829244,0.09196285,0.16481583,0.10620214,0.16878497,0.08396717,0.2147471,0.01237035
0.02,0.06510629,0.13465806,0.03147847,0.03416045,0.0360419,0.0273284,0.03321741,0.03503361,0.03951547,0.07991673,0.04095039,0.05128221,0.04722027,0.03282762,0.01246483,0.03122989,0.01248764,0.01418094,0.0109544,0.01527465,0.02221371,0.05127242,0.03230857,0.01259961,0.01282351,0.02225544,0.03360849,0.04404407,0.05350406,0.04006384,0.04142351,0.05150379,0.03330597,0.02644983,0.03734879,0.04240065,0.03852643,0.04627415,0.16891401,0.15388924,0.12304383,0.12932241,0.09623998,0.11266813,0.11693835,0.1297254,0.10766195,0.13149197,0.09965366,0.13855508,0.13107922,0.05033299,0.05051157,0.04751039,0.08830118,0.04461669,0.09701432,0.04551378,0.05880279,0.03418369,0.03805353,0.07278773,0.04836507,0.09213053,0.16495894,0.10623603,0.17629988,0.08399706,0.21492781,0.01238075
