
 PEER Ground Motion Database, Time Series Search Report -- NGA-West2 -- 2021-09-08


 -- Summary of PEER Ground Motion Database Search Criteria --
Magnitude Min:, 7.5
Magnitude Max:, 7.8
Rrup Min (km):, 30.0
Rrup Max (km):, 55.0
Rjb Min (km):, -1.0e-06
Rjb Max (km):, 99999
Vs30 Min (m/sec):, -1.0e-06
Vs30 Max (m/sec):, 99999
D9-95 Min (sec):, -1.0e-06
D9-95 Max (sec):, 99999
Scale Factor Min:, -1.0e-06
Scale Factor Max:, 99999
Period Array:, 
Weight Array:, 
Record Sequence Number:, 
Earthquake Name:, chi-chi
Station Name:, 
User-Defined Maximum Number of Records:, 
Pulse:, 1
Damping Ratio:, 0.05
Scaling Method:, No Scaling
Suite Average:, Arithmetic
Single-Period-Scaling Period (sec):, 
Component:, SRSS
Fault Type:, All Types


 -- Summary of Metadata of Selected Records --
Result ID, Spectral Ordinate, Record Sequence Number, Mean Squared Error, Scale Factor, Tp-Pulse Period (sec), 5-75% Duration (sec), 5-95% Duration (sec), Arias Intensity (m/sec), Earthquake Name, Year, Station Name, Magnitude, Mechanism, Rjb (km), Rrup (km), Vs30 (m/sec), Lowest Useable Frequency (Hz), Initial-search Scale Factor, Horizontal-1 Acc. Filename, Horizontal-2 Acc. Filename, Vertical Acc. Filename
1, SRSS, 1181, -, 1.0, -, 35.7, 80.8, 0.4, "Chi-Chi_ Taiwan", 1999, "CHY004", 7.62, Reverse Oblique, 47.32, 47.32, 271.3, 0.0375, 1.0, RSN1181_CHICHI_CHY004-N.AT2, RSN1181_CHICHI_CHY004-W.AT2 , RSN1181_CHICHI_CHY004-V.AT2  
2, SRSS, 1183, -, 1.0, -, 27.8, 61.3, 0.5, "Chi-Chi_ Taiwan", 1999, "CHY008", 7.62, Reverse Oblique, 40.43, 40.43, 210.73, 0.0375, 1.0, RSN1183_CHICHI_CHY008-N.AT2, RSN1183_CHICHI_CHY008-W.AT2 , RSN1183_CHICHI_CHY008-V.AT2  
3, SRSS, 1186, -, 1.0, -, 10.7, 27.2, 1.7, "Chi-Chi_ Taiwan", 1999, "CHY014", 7.62, Reverse Oblique, 33.19, 34.18, 347.63, 0.0375, 1.0, RSN1186_CHICHI_CHY014-N.AT2, RSN1186_CHICHI_CHY014-W.AT2 , RSN1186_CHICHI_CHY014-V.AT2  
4, SRSS, 1187, -, 1.0, -, 23.6, 38.7, 0.9, "Chi-Chi_ Taiwan", 1999, "CHY015", 7.62, Reverse Oblique, 38.13, 38.13, 228.66, 0.0375, 1.0, RSN1187_CHICHI_CHY015-N.AT2, RSN1187_CHICHI_CHY015-W.AT2 , RSN1187_CHICHI_CHY015-V.AT2  
5, SRSS, 1190, -, 1.0, -, 24.7, 39.1, 0.1, "Chi-Chi_ Taiwan", 1999, "CHY019", 7.62, Reverse Oblique, 49.98, 50.53, 497.53, 0.0375, 1.0, RSN1190_CHICHI_CHY019-N.AT2, RSN1190_CHICHI_CHY019-W.AT2 , RSN1190_CHICHI_CHY019-V.AT2  
6, SRSS, 1196, -, 1.0, -, 29.1, 47.6, 0.2, "Chi-Chi_ Taiwan", 1999, "CHY027", 7.62, Reverse Oblique, 41.99, 41.99, 210.01, 0.05, 1.0, RSN1196_CHICHI_CHY027-E.AT2, RSN1196_CHICHI_CHY027-N.AT2 , RSN1196_CHICHI_CHY027-V.AT2  
7, SRSS, 1199, -, 1.0, -, 28.6, 43.9, 0.5, "Chi-Chi_ Taiwan", 1999, "CHY032", 7.62, Reverse Oblique, 35.43, 35.43, 192.71, 0.0375, 1.0, RSN1199_CHICHI_CHY032-E.AT2, RSN1199_CHICHI_CHY032-N.AT2 , RSN1199_CHICHI_CHY032-V.AT2  
8, SRSS, 1200, -, 1.0, -, 31.1, 49.0, 0.3, "Chi-Chi_ Taiwan", 1999, "CHY033", 7.62, Reverse Oblique, 43.82, 43.82, 197.63, 0.0625, 1.0, RSN1200_CHICHI_CHY033-E.AT2, RSN1200_CHICHI_CHY033-N.AT2 , RSN1200_CHICHI_CHY033-V.AT2  
9, SRSS, 1204, -, 1.0, -, 17.9, 39.0, 0.5, "Chi-Chi_ Taiwan", 1999, "CHY039", 7.62, Reverse Oblique, 31.87, 31.87, 201.21, 0.0375, 1.0, RSN1204_CHICHI_CHY039-E.AT2, RSN1204_CHICHI_CHY039-N.AT2 , RSN1204_CHICHI_CHY039-V.AT2  
10, SRSS, 1210, -, 1.0, -, 23.6, 39.5, 0.2, "Chi-Chi_ Taiwan", 1999, "CHY050", 7.62, Reverse Oblique, 44.74, 44.76, 538.93, 0.05, 1.0, RSN1210_CHICHI_CHY050-E.AT2, RSN1210_CHICHI_CHY050-N.AT2 , RSN1210_CHICHI_CHY050-V.AT2  
11, SRSS, 1211, -, 1.0, -, 20.1, 34.5, 0.4, "Chi-Chi_ Taiwan", 1999, "CHY052", 7.62, Reverse Oblique, 38.7, 39.02, 573.04, 0.0375, 1.0, RSN1211_CHICHI_CHY052-N.AT2, RSN1211_CHICHI_CHY052-W.AT2 , RSN1211_CHICHI_CHY052-V.AT2  
12, SRSS, 1212, -, 1.0, -, 28.6, 39.8, 0.4, "Chi-Chi_ Taiwan", 1999, "CHY054", 7.62, Reverse Oblique, 48.49, 48.49, 172.1, 0.0375, 1.0, RSN1212_CHICHI_CHY054-E.AT2, RSN1212_CHICHI_CHY054-N.AT2 , RSN1212_CHICHI_CHY054-V.AT2  
13, SRSS, 1213, -, 1.0, -, 36.8, 62.0, 0.5, "Chi-Chi_ Taiwan", 1999, "CHY055", 7.62, Reverse Oblique, 54.3, 54.3, 225.77, 0.0375, 1.0, RSN1213_CHICHI_CHY055-W.AT2, RSN1213_CHICHI_CHY055-N.AT2 , RSN1213_CHICHI_CHY055-V.AT2  
14, SRSS, 1228, -, 1.0, -, 31.1, 42.0, 0.3, "Chi-Chi_ Taiwan", 1999, "CHY076", 7.62, Reverse Oblique, 42.15, 42.15, 169.84, 0.05, 1.0, RSN1228_CHICHI_CHY076-E.AT2, RSN1228_CHICHI_CHY076-N.AT2 , RSN1228_CHICHI_CHY076-V.AT2  
15, SRSS, 1230, -, 1.0, -, 21.2, 37.6, 0.1, "Chi-Chi_ Taiwan", 1999, "CHY079", 7.62, Reverse Oblique, 46.59, 47.52, 573.04, 0.0375, 1.0, RSN1230_CHICHI_CHY079-E.AT2, RSN1230_CHICHI_CHY079-N.AT2 , RSN1230_CHICHI_CHY079-V.AT2  
16, SRSS, 1232, -, 1.0, -, 18.9, 36.3, 0.1, "Chi-Chi_ Taiwan", 1999, "CHY081", 7.62, Reverse Oblique, 41.36, 41.67, 573.04, 0.0375, 1.0, RSN1232_CHICHI_CHY081-E.AT2, RSN1232_CHICHI_CHY081-N.AT2 , RSN1232_CHICHI_CHY081-V.AT2  
17, SRSS, 1233, -, 1.0, -, 30.1, 45.8, 0.3, "Chi-Chi_ Taiwan", 1999, "CHY082", 7.62, Reverse Oblique, 36.09, 36.09, 193.69, 0.05, 1.0, RSN1233_CHICHI_CHY082-E.AT2, RSN1233_CHICHI_CHY082-N.AT2 , RSN1233_CHICHI_CHY082-V.AT2  
18, SRSS, 1236, -, 1.0, -, 17.4, 33.8, 1.0, "Chi-Chi_ Taiwan", 1999, "CHY088", 7.62, Reverse Oblique, 37.48, 37.48, 318.52, 0.05, 1.0, RSN1236_CHICHI_CHY088-E.AT2, RSN1236_CHICHI_CHY088-N.AT2 , RSN1236_CHICHI_CHY088-V.AT2  
19, SRSS, 1239, -, 1.0, -, 47.3, 95.7, 0.3, "Chi-Chi_ Taiwan", 1999, "CHY093", 7.62, Reverse Oblique, 49.82, 49.82, 190.49, 0.0375, 1.0, RSN1239_CHICHI_CHY093-N.AT2, RSN1239_CHICHI_CHY093-W.AT2 , RSN1239_CHICHI_CHY093-V.AT2  
20, SRSS, 1240, -, 1.0, -, 46.5, 80.0, 0.4, "Chi-Chi_ Taiwan", 1999, "CHY094", 7.62, Reverse Oblique, 37.1, 37.1, 221.92, 0.0625, 1.0, RSN1240_CHICHI_CHY094-N.AT2, RSN1240_CHICHI_CHY094-W.AT2 , RSN1240_CHICHI_CHY094-V.AT2  
21, SRSS, 1243, -, 1.0, -, 29.6, 54.9, 0.3, "Chi-Chi_ Taiwan", 1999, "CHY100", 7.62, Reverse Oblique, 53.46, 53.46, 230.11, 0.0375, 1.0, RSN1243_CHICHI_CHY100-N.AT2, RSN1243_CHICHI_CHY100-W.AT2 , RSN1243_CHICHI_CHY100-V.AT2  
22, SRSS, 1245, -, 1.0, -, 21.7, 36.2, 0.1, "Chi-Chi_ Taiwan", 1999, "CHY102", 7.62, Reverse Oblique, 36.06, 37.72, 804.36, 0.05, 1.0, RSN1245_CHICHI_CHY102-E.AT2, RSN1245_CHICHI_CHY102-N.AT2 , RSN1245_CHICHI_CHY102-V.AT2  
23, SRSS, 1247, -, 1.0, -, 31.5, 65.2, 0.4, "Chi-Chi_ Taiwan", 1999, "CHY107", 7.62, Reverse Oblique, 50.61, 50.61, 175.68, 0.025, 1.0, RSN1247_CHICHI_CHY107-N.AT2, RSN1247_CHICHI_CHY107-W.AT2 , RSN1247_CHICHI_CHY107-V.AT2  
24, SRSS, 1248, -, 1.0, -, 21.5, 35.5, 0.1, "Chi-Chi_ Taiwan", 1999, "CHY109", 7.62, Reverse Oblique, 40.37, 41.03, 573.04, 0.25, 1.0, RSN1248_CHICHI_CHY109-E.AT2, RSN1248_CHICHI_CHY109-N.AT2 , RSN1248_CHICHI_CHY109-V.AT2  
25, SRSS, 1249, -, 1.0, -, 19.0, 32.5, 0.0, "Chi-Chi_ Taiwan", 1999, "CHY110", 7.62, Reverse Oblique, 40.37, 41.03, 573.04, 0.25, 1.0, RSN1249_CHICHI_CHY110-E.AT2, RSN1249_CHICHI_CHY110-N.AT2 , RSN1249_CHICHI_CHY110-V.AT2  
26, SRSS, 1258, -, 1.0, -, 12.1, 27.5, 0.5, "Chi-Chi_ Taiwan", 1999, "HWA005", 7.62, Reverse Oblique, 43.17, 47.58, 459.32, 0.0625, 1.0, RSN1258_CHICHI_HWA005-N.AT2, RSN1258_CHICHI_HWA005-W.AT2 , RSN1258_CHICHI_HWA005-V.AT2  
27, SRSS, 1259, -, 1.0, -, 9.9, 20.1, 0.2, "Chi-Chi_ Taiwan", 1999, "HWA006", 7.62, Reverse Oblique, 43.49, 47.86, 559.11, 0.075, 1.0, RSN1259_CHICHI_HWA006-N.AT2, RSN1259_CHICHI_HWA006-W.AT2 , RSN1259_CHICHI_HWA006-V.AT2  
28, SRSS, 1262, -, 1.0, -, 13.3, 27.7, 0.3, "Chi-Chi_ Taiwan", 1999, "HWA011", 7.62, Reverse Oblique, 49.29, 53.19, 355.76, 0.025, 1.0, RSN1262_CHICHI_HWA011-E.AT2, RSN1262_CHICHI_HWA011-N.AT2 , RSN1262_CHICHI_HWA011-V.AT2  
29, SRSS, 1264, -, 1.0, -, 13.3, 31.1, 0.5, "Chi-Chi_ Taiwan", 1999, "HWA013", 7.62, Reverse Oblique, 50.5, 54.32, 330.55, 0.025, 1.0, RSN1264_CHICHI_HWA013-E.AT2, RSN1264_CHICHI_HWA013-N.AT2 , RSN1264_CHICHI_HWA013-V.AT2  
30, SRSS, 1266, -, 1.0, -, 10.9, 21.0, 0.2, "Chi-Chi_ Taiwan", 1999, "HWA015", 7.62, Reverse Oblique, 47.04, 51.12, 453.05, 0.025, 1.0, RSN1266_CHICHI_HWA015-E.AT2, RSN1266_CHICHI_HWA015-N.AT2 , RSN1266_CHICHI_HWA015-V.AT2  
31, SRSS, 1267, -, 1.0, -, 10.1, 28.7, 0.1, "Chi-Chi_ Taiwan", 1999, "HWA016", 7.62, Reverse Oblique, 48.19, 52.18, 576.55, 0.0625, 1.0, RSN1267_CHICHI_HWA016-E.AT2, RSN1267_CHICHI_HWA016-N.AT2 , RSN1267_CHICHI_HWA016-V.AT2  
32, SRSS, 1268, -, 1.0, -, 11.9, 22.4, 0.1, "Chi-Chi_ Taiwan", 1999, "HWA017", 7.62, Reverse Oblique, 47.04, 51.11, 578.11, 0.025, 1.0, RSN1268_CHICHI_HWA017-E.AT2, RSN1268_CHICHI_HWA017-N.AT2 , RSN1268_CHICHI_HWA017-V.AT2  
33, SRSS, 1270, -, 1.0, -, 9.8, 18.1, 0.1, "Chi-Chi_ Taiwan", 1999, "HWA020", 7.62, Reverse Oblique, 39.8, 44.54, 626.43, 0.025, 1.0, RSN1270_CHICHI_HWA020-E.AT2, RSN1270_CHICHI_HWA020-N.AT2 , RSN1270_CHICHI_HWA020-V.AT2  
34, SRSS, 1272, -, 1.0, -, 12.3, 22.8, 0.0, "Chi-Chi_ Taiwan", 1999, "HWA023", 7.62, Reverse Oblique, 47.08, 51.15, 671.52, 0.05, 1.0, RSN1272_CHICHI_HWA023-E.AT2, RSN1272_CHICHI_HWA023-N.AT2 , RSN1272_CHICHI_HWA023-V.AT2  
35, SRSS, 1273, -, 1.0, -, 21.1, 35.0, 0.0, "Chi-Chi_ Taiwan", 1999, "HWA024", 7.62, Reverse Oblique, 38.23, 43.15, 671.52, 0.0375, 1.0, RSN1273_CHICHI_HWA024-E.AT2, RSN1273_CHICHI_HWA024-N.AT2 , RSN1273_CHICHI_HWA024-V.AT2  
36, SRSS, 1274, -, 1.0, -, 11.0, 20.5, 0.1, "Chi-Chi_ Taiwan", 1999, "HWA025", 7.62, Reverse Oblique, 49.93, 53.79, 494.32, 0.1875, 1.0, RSN1274_CHICHI_HWA025-E.AT2, RSN1274_CHICHI_HWA025-N.AT2 , RSN1274_CHICHI_HWA025-V.AT2  
37, SRSS, 1275, -, 1.0, -, 9.9, 19.6, 0.1, "Chi-Chi_ Taiwan", 1999, "HWA026", 7.62, Reverse Oblique, 47.96, 51.96, 457.49, 0.0375, 1.0, RSN1275_CHICHI_HWA026-E.AT2, RSN1275_CHICHI_HWA026-N.AT2 , RSN1275_CHICHI_HWA026-V.AT2  
38, SRSS, 1276, -, 1.0, -, 9.3, 17.0, 0.3, "Chi-Chi_ Taiwan", 1999, "HWA027", 7.62, Reverse Oblique, 47.58, 51.62, 437.8, 0.0375, 1.0, RSN1276_CHICHI_HWA027-E.AT2, RSN1276_CHICHI_HWA027-N.AT2 , RSN1276_CHICHI_HWA027-V.AT2  
39, SRSS, 1277, -, 1.0, -, 14.2, 35.3, 0.3, "Chi-Chi_ Taiwan", 1999, "HWA028", 7.62, Reverse Oblique, 49.99, 53.84, 406.7, 0.025, 1.0, RSN1277_CHICHI_HWA028-E.AT2, RSN1277_CHICHI_HWA028-N.AT2 , RSN1277_CHICHI_HWA028-V.AT2  
40, SRSS, 1278, -, 1.0, -, 11.1, 22.5, 0.2, "Chi-Chi_ Taiwan", 1999, "HWA029", 7.62, Reverse Oblique, 50.47, 54.29, 614.05, 0.15, 1.0, RSN1278_CHICHI_HWA029-E.AT2, RSN1278_CHICHI_HWA029-N.AT2 , RSN1278_CHICHI_HWA029-V.AT2  
41, SRSS, 1279, -, 1.0, -, 10.6, 21.1, 0.1, "Chi-Chi_ Taiwan", 1999, "HWA030", 7.62, Reverse Oblique, 42.47, 46.95, 592.18, 0.025, 1.0, RSN1279_CHICHI_HWA030-E.AT2, RSN1279_CHICHI_HWA030-N.AT2 , RSN1279_CHICHI_HWA030-V.AT2  
42, SRSS, 1280, -, 1.0, -, 8.8, 20.4, 0.3, "Chi-Chi_ Taiwan", 1999, "HWA031", 7.62, Reverse Oblique, 47.41, 51.46, 602.29, 0.025, 1.0, RSN1280_CHICHI_HWA031-E.AT2, RSN1280_CHICHI_HWA031-N.AT2 , RSN1280_CHICHI_HWA031-V.AT2  
43, SRSS, 1281, -, 1.0, -, 8.7, 17.9, 0.4, "Chi-Chi_ Taiwan", 1999, "HWA032", 7.62, Reverse Oblique, 42.87, 47.31, 573.04, 0.625, 1.0, RSN1281_CHICHI_HWA032-E.AT2, RSN1281_CHICHI_HWA032-N.AT2 , RSN1281_CHICHI_HWA032-V.AT2  
44, SRSS, 1282, -, 1.0, -, 9.4, 19.7, 0.4, "Chi-Chi_ Taiwan", 1999, "HWA033", 7.62, Reverse Oblique, 49.31, 53.21, 395.57, 0.0625, 1.0, RSN1282_CHICHI_HWA033-E.AT2, RSN1282_CHICHI_HWA033-N.AT2 , RSN1282_CHICHI_HWA033-V.AT2  
45, SRSS, 1283, -, 1.0, -, 10.5, 20.1, 0.4, "Chi-Chi_ Taiwan", 1999, "HWA034", 7.62, Reverse Oblique, 39.55, 44.32, 379.18, 0.0625, 1.0, RSN1283_CHICHI_HWA034-E.AT2, RSN1283_CHICHI_HWA034-N.AT2 , RSN1283_CHICHI_HWA034-V.AT2  
46, SRSS, 1284, -, 1.0, -, 11.4, 22.0, 0.1, "Chi-Chi_ Taiwan", 1999, "HWA035", 7.62, Reverse Oblique, 44.02, 48.35, 677.49, 0.025, 1.0, RSN1284_CHICHI_HWA035-E.AT2, RSN1284_CHICHI_HWA035-N.AT2 , RSN1284_CHICHI_HWA035-V.AT2  
47, SRSS, 1285, -, 1.0, -, 19.8, 31.1, 0.2, "Chi-Chi_ Taiwan", 1999, "HWA036", 7.62, Reverse Oblique, 38.97, 43.8, 503.04, 0.025, 1.0, RSN1285_CHICHI_HWA036-E.AT2, RSN1285_CHICHI_HWA036-N.AT2 , RSN1285_CHICHI_HWA036-V.AT2  
48, SRSS, 1286, -, 1.0, -, 18.9, 31.8, 0.5, "Chi-Chi_ Taiwan", 1999, "HWA037", 7.62, Reverse Oblique, 41.65, 46.2, 469.64, 0.05, 1.0, RSN1286_CHICHI_HWA037-E.AT2, RSN1286_CHICHI_HWA037-N.AT2 , RSN1286_CHICHI_HWA037-V.AT2  
49, SRSS, 1287, -, 1.0, -, 20.5, 32.4, 0.1, "Chi-Chi_ Taiwan", 1999, "HWA038", 7.62, Reverse Oblique, 37.54, 42.54, 642.73, 0.05, 1.0, RSN1287_CHICHI_HWA038-E.AT2, RSN1287_CHICHI_HWA038-N.AT2 , RSN1287_CHICHI_HWA038-V.AT2  
50, SRSS, 1288, -, 1.0, -, 18.9, 27.7, 0.3, "Chi-Chi_ Taiwan", 1999, "HWA039", 7.62, Reverse Oblique, 41.3, 45.89, 459.67, 0.125, 1.0, RSN1288_CHICHI_HWA039-E.AT2, RSN1288_CHICHI_HWA039-N.AT2 , RSN1288_CHICHI_HWA039-V.AT2  
51, SRSS, 1289, -, 1.0, -, 21.2, 33.5, 0.3, "Chi-Chi_ Taiwan", 1999, "HWA041", 7.62, Reverse Oblique, 43.37, 47.76, 484.97, 0.025, 1.0, RSN1289_CHICHI_HWA041-E.AT2, RSN1289_CHICHI_HWA041-N.AT2 , RSN1289_CHICHI_HWA041-V.AT2  
52, SRSS, 1293, -, 1.0, -, 8.3, 17.3, 0.2, "Chi-Chi_ Taiwan", 1999, "HWA046", 7.62, Reverse Oblique, 47.79, 51.8, 617.52, 0.025, 1.0, RSN1293_CHICHI_HWA046-N.AT2, RSN1293_CHICHI_HWA046-W.AT2 , RSN1293_CHICHI_HWA046-V.AT2  
53, SRSS, 1294, -, 1.0, -, 13.2, 30.5, 0.4, "Chi-Chi_ Taiwan", 1999, "HWA048", 7.62, Reverse Oblique, 47.35, 51.4, 345.89, 0.0625, 1.0, RSN1294_CHICHI_HWA048-N.AT2, RSN1294_CHICHI_HWA048-W.AT2 , RSN1294_CHICHI_HWA048-V.AT2  
54, SRSS, 1295, -, 1.0, -, 11.7, 28.3, 0.3, "Chi-Chi_ Taiwan", 1999, "HWA049", 7.62, Reverse Oblique, 46.65, 50.76, 508.61, 0.0625, 1.0, RSN1295_CHICHI_HWA049-N.AT2, RSN1295_CHICHI_HWA049-W.AT2 , RSN1295_CHICHI_HWA049-V.AT2  
55, SRSS, 1296, -, 1.0, -, 9.4, 15.8, 0.2, "Chi-Chi_ Taiwan", 1999, "HWA050", 7.62, Reverse Oblique, 49.37, 53.27, 313.9, 0.0625, 1.0, RSN1296_CHICHI_HWA050-N.AT2, RSN1296_CHICHI_HWA050-W.AT2 , RSN1296_CHICHI_HWA050-V.AT2  
56, SRSS, 1297, -, 1.0, -, 12.8, 20.2, 0.4, "Chi-Chi_ Taiwan", 1999, "HWA051", 7.62, Reverse Oblique, 49.69, 53.56, 440.5, 0.025, 1.0, RSN1297_CHICHI_HWA051-N.AT2, RSN1297_CHICHI_HWA051-W.AT2 , RSN1297_CHICHI_HWA051-V.AT2  
57, SRSS, 1299, -, 1.0, -, 23.9, 36.1, 0.1, "Chi-Chi_ Taiwan", 1999, "HWA054", 7.62, Reverse Oblique, 38.07, 43.01, 452.83, 0.075, 1.0, RSN1299_CHICHI_HWA054-N.AT2, RSN1299_CHICHI_HWA054-W.AT2 ,  -----   
58, SRSS, 1300, -, 1.0, -, 21.2, 34.1, 0.4, "Chi-Chi_ Taiwan", 1999, "HWA055", 7.62, Reverse Oblique, 43.04, 47.46, 369.75, 0.05, 1.0, RSN1300_CHICHI_HWA055-N.AT2, RSN1300_CHICHI_HWA055-W.AT2 , RSN1300_CHICHI_HWA055-V.AT2  
59, SRSS, 1301, -, 1.0, -, 9.5, 16.9, 0.2, "Chi-Chi_ Taiwan", 1999, "HWA056", 7.62, Reverse Oblique, 35.9, 41.1, 511.3, 0.0375, 1.0, RSN1301_CHICHI_HWA056-E.AT2, RSN1301_CHICHI_HWA056-N.AT2 , RSN1301_CHICHI_HWA056-V.AT2  
60, SRSS, 1302, -, 1.0, -, 12.9, 19.7, 0.2, "Chi-Chi_ Taiwan", 1999, "HWA057", 7.62, Reverse Oblique, 46.48, 50.6, 671.52, 0.025, 1.0, RSN1302_CHICHI_HWA057-E.AT2, RSN1302_CHICHI_HWA057-N.AT2 , RSN1302_CHICHI_HWA057-V.AT2  
61, SRSS, 1303, -, 1.0, -, 9.4, 17.4, 0.2, "Chi-Chi_ Taiwan", 1999, "HWA058", 7.62, Reverse Oblique, 41.17, 45.77, 529.54, 0.025, 1.0, RSN1303_CHICHI_HWA058-E.AT2, RSN1303_CHICHI_HWA058-N.AT2 , RSN1303_CHICHI_HWA058-V.AT2  
62, SRSS, 1304, -, 1.0, -, 11.3, 20.5, 0.4, "Chi-Chi_ Taiwan", 1999, "HWA059", 7.62, Reverse Oblique, 44.89, 49.15, 208.56, 0.025, 1.0, RSN1304_CHICHI_HWA059-E.AT2, RSN1304_CHICHI_HWA059-N.AT2 , RSN1304_CHICHI_HWA059-V.AT2  
63, SRSS, 1350, -, 1.0, -, 8.7, 18.4, 0.7, "Chi-Chi_ Taiwan", 1999, "ILA067", 7.62, Reverse Oblique, 33.27, 38.82, 665.2, 0.0375, 1.0, RSN1350_CHICHI_ILA067-E.AT2, RSN1350_CHICHI_ILA067-N.AT2 , RSN1350_CHICHI_ILA067-V.AT2  
64, SRSS, 1351, -, 1.0, -, 24.5, 43.1, 0.0, "Chi-Chi_ Taiwan", 1999, "KAU001", 7.62, Reverse Oblique, 42.48, 44.93, 573.04, 0.0375, 1.0, RSN1351_CHICHI_KAU001-N.AT2, RSN1351_CHICHI_KAU001-W.AT2 , RSN1351_CHICHI_KAU001-V.AT2  
65, SRSS, 1375, -, 1.0, -, 25.6, 39.5, 0.1, "Chi-Chi_ Taiwan", 1999, "KAU047", 7.62, Reverse Oblique, 52.89, 54.95, 573.04, 0.0375, 1.0, RSN1375_CHICHI_KAU047-E.AT2, RSN1375_CHICHI_KAU047-N.AT2 , RSN1375_CHICHI_KAU047-V.AT2  
66, SRSS, 1377, -, 1.0, -, 23.2, 37.3, 0.1, "Chi-Chi_ Taiwan", 1999, "KAU050", 7.62, Reverse Oblique, 35.68, 40.49, 665.2, 0.0375, 1.0, RSN1377_CHICHI_KAU050-E.AT2, RSN1377_CHICHI_KAU050-N.AT2 , RSN1377_CHICHI_KAU050-V.AT2  
67, SRSS, 1380, -, 1.0, -, 19.0, 32.5, 0.1, "Chi-Chi_ Taiwan", 1999, "KAU054", 7.62, Reverse Oblique, 27.37, 30.85, 497.22, 0.05, 1.0, RSN1380_CHICHI_KAU054-E.AT2, RSN1380_CHICHI_KAU054-N.AT2 , RSN1380_CHICHI_KAU054-V.AT2  
68, SRSS, 1402, -, 1.0, 7.875, 8.7, 10.2, 0.8, "Chi-Chi_ Taiwan", 1999, "NST", 7.62, Reverse Oblique, 38.36, 38.42, 491.08, 0.0625, 1.0, RSN1402_CHICHI_NST-E.AT2, RSN1402_CHICHI_NST-N.AT2 , RSN1402_CHICHI_NST-V.AT2  
69, SRSS, 1471, -, 1.0, -, 15.7, 26.5, 0.4, "Chi-Chi_ Taiwan", 1999, "TCU015", 7.62, Reverse Oblique, 49.81, 49.81, 426.0, 0.0375, 1.0, RSN1471_CHICHI_TCU015-E.AT2, RSN1471_CHICHI_TCU015-N.AT2 , RSN1471_CHICHI_TCU015-V.AT2  
70, SRSS, 1472, -, 1.0, -, 14.0, 31.8, 0.3, "Chi-Chi_ Taiwan", 1999, "TCU017", 7.62, Reverse Oblique, 54.28, 54.28, 558.76, 0.025, 1.0, RSN1472_CHICHI_TCU017-E.AT2, RSN1472_CHICHI_TCU017-N.AT2 , RSN1472_CHICHI_TCU017-V.AT2  
71, SRSS, 1474, -, 1.0, -, 12.7, 18.1, 0.1, "Chi-Chi_ Taiwan", 1999, "TCU025", 7.62, Reverse Oblique, 52.18, 52.98, 665.2, 0.0625, 1.0, RSN1474_CHICHI_TCU025-E.AT2, RSN1474_CHICHI_TCU025-N.AT2 , RSN1474_CHICHI_TCU025-V.AT2  
72, SRSS, 1477, -, 1.0, 5.929, 20.4, 32.1, 0.6, "Chi-Chi_ Taiwan", 1999, "TCU031", 7.62, Reverse Oblique, 30.17, 30.17, 489.22, 0.025, 1.0, RSN1477_CHICHI_TCU031-E.AT2, RSN1477_CHICHI_TCU031-N.AT2 , RSN1477_CHICHI_TCU031-V.AT2  
73, SRSS, 1478, -, 1.0, 8.974, 12.6, 26.7, 0.8, "Chi-Chi_ Taiwan", 1999, "TCU033", 7.62, Reverse Oblique, 40.88, 40.88, 423.4, 0.0375, 1.0, RSN1478_CHICHI_TCU033-E.AT2, RSN1478_CHICHI_TCU033-N.AT2 , RSN1478_CHICHI_TCU033-V.AT2  
74, SRSS, 1479, -, 1.0, 8.869, 13.6, 23.2, 0.9, "Chi-Chi_ Taiwan", 1999, "TCU034", 7.62, Reverse Oblique, 35.68, 35.68, 393.77, 0.05, 1.0, RSN1479_CHICHI_TCU034-E.AT2, RSN1479_CHICHI_TCU034-N.AT2 , RSN1479_CHICHI_TCU034-V.AT2  
75, SRSS, 1487, -, 1.0, 12.313, 10.1, 15.7, 1.8, "Chi-Chi_ Taiwan", 1999, "TCU047", 7.62, Reverse Oblique, 35.0, 35.0, 520.37, 0.0375, 1.0, RSN1487_CHICHI_TCU047-E.AT2, RSN1487_CHICHI_TCU047-N.AT2 , RSN1487_CHICHI_TCU047-V.AT2  
76, SRSS, 1523, -, 1.0, -, 16.9, 31.0, 0.3, "Chi-Chi_ Taiwan", 1999, "TCU094", 7.62, Reverse Oblique, 54.5, 54.53, 589.85, 0.025, 1.0, RSN1523_CHICHI_TCU094-E.AT2, RSN1523_CHICHI_TCU094-N.AT2 , RSN1523_CHICHI_TCU094-V.AT2  
77, SRSS, 1524, -, 1.0, -, 8.3, 13.3, 2.8, "Chi-Chi_ Taiwan", 1999, "TCU095", 7.62, Reverse Oblique, 45.15, 45.18, 446.63, 0.05, 1.0, RSN1524_CHICHI_TCU095-E.AT2, RSN1524_CHICHI_TCU095-N.AT2 , RSN1524_CHICHI_TCU095-V.AT2  
78, SRSS, 1525, -, 1.0, -, 19.1, 31.2, 0.2, "Chi-Chi_ Taiwan", 1999, "TCU096", 7.62, Reverse Oblique, 54.45, 54.45, 454.58, 0.05, 1.0, RSN1525_CHICHI_TCU096-E.AT2, RSN1525_CHICHI_TCU096-N.AT2 , RSN1525_CHICHI_TCU096-V.AT2  
79, SRSS, 1526, -, 1.0, -, 19.4, 33.6, 0.5, "Chi-Chi_ Taiwan", 1999, "TCU098", 7.62, Reverse Oblique, 47.67, 47.67, 346.56, 0.0375, 1.0, RSN1526_CHICHI_TCU098-E.AT2, RSN1526_CHICHI_TCU098-N.AT2 , RSN1526_CHICHI_TCU098-V.AT2  
80, SRSS, 1539, -, 1.0, -, 30.4, 44.3, 0.3, "Chi-Chi_ Taiwan", 1999, "TCU113", 7.62, Reverse Oblique, 31.05, 31.05, 230.3, 0.05, 1.0, RSN1539_CHICHI_TCU113-E.AT2, RSN1539_CHICHI_TCU113-N.AT2 , RSN1539_CHICHI_TCU113-V.AT2  
81, SRSS, 1544, -, 1.0, -, 32.2, 48.9, 0.3, "Chi-Chi_ Taiwan", 1999, "TCU119", 7.62, Reverse Oblique, 37.93, 37.93, 221.7, 0.05, 1.0, RSN1544_CHICHI_TCU119-E.AT2, RSN1544_CHICHI_TCU119-N.AT2 , RSN1544_CHICHI_TCU119-V.AT2  
82, SRSS, 1552, -, 1.0, -, 36.4, 68.1, 0.4, "Chi-Chi_ Taiwan", 1999, "TCU140", 7.62, Reverse Oblique, 32.95, 32.95, 223.6, 0.0625, 1.0, RSN1552_CHICHI_TCU140-N.AT2, RSN1552_CHICHI_TCU140-W.AT2 , RSN1552_CHICHI_TCU140-V.AT2  
83, SRSS, 1554, -, 1.0, -, 36.7, 72.8, 0.4, "Chi-Chi_ Taiwan", 1999, "TCU145", 7.62, Reverse Oblique, 35.32, 35.32, 240.43, 0.05, 1.0, RSN1554_CHICHI_TCU145-N.AT2, RSN1554_CHICHI_TCU145-W.AT2 , RSN1554_CHICHI_TCU145-V.AT2  
