
 PEER Ground Motion Database, Time Series Search Report -- NGA-West2 -- 2021-03-15


 -- Summary of PEER Ground Motion Database Search Criteria --
Magnitude Min:, -1.0e-06
Magnitude Max:, 99999
Rrup Min (km):, 40.0
Rrup Max (km):, 200.0
Rjb Min (km):, -1.0e-06
Rjb Max (km):, 99999
Vs30 Min (m/sec):, -1.0e-06
Vs30 Max (m/sec):, 99999
D9-95 Min (sec):, -1.0e-06
D9-95 Max (sec):, 99999
Scale Factor Min:, -1.0e-06
Scale Factor Max:, 99999
Period Array:, 
Weight Array:, 
Record Sequence Number:, 
Earthquake Name:, Northridge-01
Station Name:, 
User-Defined Maximum Number of Records:, 
Pulse:, 1
Damping Ratio:, 0.05
Scaling Method:, No Scaling
Suite Average:, Arithmetic
Single-Period-Scaling Period (sec):, 
Component:, SRSS
Fault Type:, All Types


 -- Summary of Metadata of Selected Records --
Result ID, Spectral Ordinate, Record Sequence Number, Mean Squared Error, Scale Factor, Tp-Pulse Period (sec), 5-75% Duration (sec), 5-95% Duration (sec), Arias Intensity (m/sec), Earthquake Name, Year, Station Name, Magnitude, Mechanism, Rjb (km), Rrup (km), Vs30 (m/sec), Lowest Useable Frequency (Hz), Initial-search Scale Factor, Horizontal-1 Acc. Filename, Horizontal-2 Acc. Filename, Vertical Acc. Filename
1, SRSS, 943, -, 1.0, -, 7.4, 13.2, 0.1, "Northridge-01", 1994, "Anacapa Island", 6.69, Reverse, 65.84, 68.93, 501.75, 0.3, 1.0, RSN943_NORTHR_ACI000.AT2, RSN943_NORTHR_ACI270.AT2 , RSN943_NORTHR_ACI-UP.AT2  
2, SRSS, 944, -, 1.0, -, 13.1, 19.7, 0.1, "Northridge-01", 1994, "Anaheim - W Ball Rd", 6.69, Reverse, 66.32, 68.62, 269.29, 0.375, 1.0, RSN944_NORTHR_WBA000.AT2, RSN944_NORTHR_WBA090.AT2 , RSN944_NORTHR_WBA-UP.AT2  
3, SRSS, 946, -, 1.0, -, 9.0, 15.2, 0.0, "Northridge-01", 1994, "Antelope Buttes", 6.69, Reverse, 46.65, 46.91, 572.57, 0.12, 1.0, RSN946_NORTHR_ATB000.AT2, RSN946_NORTHR_ATB090.AT2 , RSN946_NORTHR_ATB-UP.AT2  
4, SRSS, 948, -, 1.0, -, 8.3, 17.3, 0.2, "Northridge-01", 1994, "Arcadia - Campus Dr", 6.69, Reverse, 41.11, 41.41, 367.53, 0.25, 1.0, RSN948_NORTHR_CAM009.AT2, RSN948_NORTHR_CAM279.AT2 , RSN948_NORTHR_CAM-UP.AT2  
5, SRSS, 950, -, 1.0, -, 6.9, 13.8, 0.1, "Northridge-01", 1994, "Baldwin Park - N Holly", 6.69, Reverse, 47.72, 47.98, 544.68, 0.3125, 1.0, RSN950_NORTHR_NHO180.AT2, RSN950_NORTHR_NHO270.AT2 , RSN950_NORTHR_NHO-UP.AT2  
6, SRSS, 951, -, 1.0, -, 10.1, 19.8, 0.2, "Northridge-01", 1994, "Bell Gardens - Jaboneria", 6.69, Reverse, 41.27, 44.1, 267.13, 0.4125, 1.0, RSN951_NORTHR_JAB220.AT2, RSN951_NORTHR_JAB310.AT2 , RSN951_NORTHR_JAB-UP.AT2  
7, SRSS, 955, -, 1.0, -, 7.0, 17.5, 0.2, "Northridge-01", 1994, "Brea - S Flower Av", 6.69, Reverse, 64.63, 65.43, 322.75, 0.3125, 1.0, RSN955_NORTHR_FLO020.AT2, RSN955_NORTHR_FLO290.AT2 , RSN955_NORTHR_FLO-UP.AT2  
8, SRSS, 956, -, 1.0, -, 9.9, 18.1, 0.2, "Northridge-01", 1994, "Buena Park - La Palma", 6.69, Reverse, 59.35, 61.96, 270.96, 0.2875, 1.0, RSN956_NORTHR_BPK090.AT2, RSN956_NORTHR_BPK180.AT2 , RSN956_NORTHR_BPK-UP.AT2  
9, SRSS, 958, -, 1.0, -, 15.6, 37.6, 0.5, "Northridge-01", 1994, "Camarillo", 6.69, Reverse, 34.78, 40.34, 351.4, 0.2, 1.0, RSN958_NORTHR_CMR180.AT2, RSN958_NORTHR_CMR270.AT2 , RSN958_NORTHR_CMR-UP.AT2  
10, SRSS, 961, -, 1.0, -, 10.3, 21.0, 0.1, "Northridge-01", 1994, "Carson - Catskill Ave", 6.69, Reverse, 46.05, 50.38, 305.14, 0.2875, 1.0, RSN961_NORTHR_CAT090.AT2, RSN961_NORTHR_CAT180.AT2 , RSN961_NORTHR_CAT-UP.AT2  
11, SRSS, 962, -, 1.0, -, 14.6, 23.4, 0.2, "Northridge-01", 1994, "Carson - Water St", 6.69, Reverse, 45.44, 49.81, 160.58, 0.225, 1.0, RSN962_NORTHR_WAT180.AT2, RSN962_NORTHR_WAT270.AT2 , RSN962_NORTHR_WAT-UP.AT2  
12, SRSS, 964, -, 1.0, -, 12.7, 23.0, 0.2, "Northridge-01", 1994, "Compton - Castlegate St", 6.69, Reverse, 42.96, 47.04, 266.9, 0.1625, 1.0, RSN964_NORTHR_CAS000.AT2, RSN964_NORTHR_CAS270.AT2 , RSN964_NORTHR_CAS-UP.AT2  
13, SRSS, 965, -, 1.0, -, 11.1, 19.4, 0.1, "Northridge-01", 1994, "Covina - S Grand Ave", 6.69, Reverse, 57.29, 57.51, 346.62, 0.2875, 1.0, RSN965_NORTHR_GRA074.AT2, RSN965_NORTHR_GRA344.AT2 , RSN965_NORTHR_GRA-UP.AT2  
14, SRSS, 966, -, 1.0, -, 8.5, 17.3, 0.1, "Northridge-01", 1994, "Covina - W Badillo", 6.69, Reverse, 53.21, 53.45, 324.79, 0.25, 1.0, RSN966_NORTHR_BAD000.AT2, RSN966_NORTHR_BAD270.AT2 , RSN966_NORTHR_BAD-UP.AT2  
15, SRSS, 967, -, 1.0, -, 9.1, 18.0, 0.3, "Northridge-01", 1994, "Downey - Birchdale", 6.69, Reverse, 45.68, 48.87, 245.06, 0.35, 1.0, RSN967_NORTHR_BIR090.AT2, RSN967_NORTHR_BIR180.AT2 , RSN967_NORTHR_BIR-UP.AT2  
16, SRSS, 968, -, 1.0, -, 8.0, 17.2, 0.6, "Northridge-01", 1994, "Downey - Co Maint Bldg", 6.69, Reverse, 43.2, 46.74, 271.9, 0.2, 1.0, RSN968_NORTHR_DWN090.AT2, RSN968_NORTHR_DWN360.AT2 , RSN968_NORTHR_DWN-UP.AT2  
17, SRSS, 969, -, 1.0, -, 8.4, 16.1, 0.1, "Northridge-01", 1994, "Duarte - Mel Canyon Rd.", 6.69, Reverse, 48.37, 48.63, 459.14, 0.5375, 1.0, RSN969_NORTHR_MEL090.AT2, RSN969_NORTHR_MEL180.AT2 , RSN969_NORTHR_MEL-UP.AT2  
18, SRSS, 970, -, 1.0, -, 10.4, 20.1, 0.3, "Northridge-01", 1994, "El Monte - Fairview Av", 6.69, Reverse, 44.51, 44.79, 290.63, 0.1625, 1.0, RSN970_NORTHR_FAI095.AT2, RSN970_NORTHR_FAI185.AT2 , RSN970_NORTHR_FAI-UP.AT2  
19, SRSS, 972, -, 1.0, -, 5.9, 10.9, 0.1, "Northridge-01", 1994, "Featherly Park - Maint", 6.69, Reverse, 82.01, 82.32, 367.54, 0.3, 1.0, RSN972_NORTHR_FEA000.AT2, RSN972_NORTHR_FEA090.AT2 , RSN972_NORTHR_FEA-UP.AT2  
20, SRSS, 973, -, 1.0, -, 9.2, 19.0, 0.2, "Northridge-01", 1994, "Garden Grove - Santa Rita", 6.69, Reverse, 63.73, 66.64, 301.11, 0.375, 1.0, RSN973_NORTHR_GAR000.AT2, RSN973_NORTHR_GAR270.AT2 ,  -----   
21, SRSS, 975, -, 1.0, -, 10.8, 16.6, 0.1, "Northridge-01", 1994, "Glendora - N Oakbank", 6.69, Reverse, 53.71, 53.94, 362.31, 0.4125, 1.0, RSN975_NORTHR_OAK080.AT2, RSN975_NORTHR_OAK170.AT2 , RSN975_NORTHR_OAK-UP.AT2  
22, SRSS, 976, -, 1.0, -, 10.5, 20.7, 0.1, "Northridge-01", 1994, "Hacienda Heights - Colima", 6.69, Reverse, 56.55, 57.02, 337.0, 0.5, 1.0, RSN976_NORTHR_COM140.AT2, RSN976_NORTHR_COM230.AT2 , RSN976_NORTHR_COM-UP.AT2  
23, SRSS, 977, -, 1.0, -, 11.2, 20.5, 0.1, "Northridge-01", 1994, "Hemet - Ryan Airfield", 6.69, Reverse, 144.62, 144.71, 290.93, 0.3, 1.0, RSN977_NORTHR_HEM000.AT2, RSN977_NORTHR_HEM090.AT2 , RSN977_NORTHR_HEM-UP.AT2  
24, SRSS, 979, -, 1.0, -, 12.1, 22.0, 0.1, "Northridge-01", 1994, "Huntington Bch - Waikiki", 6.69, Reverse, 66.43, 69.5, 270.54, 0.175, 1.0, RSN979_NORTHR_WAI200.AT2, RSN979_NORTHR_WAI290.AT2 , RSN979_NORTHR_WAI-UP.AT2  
25, SRSS, 980, -, 1.0, -, 11.3, 28.0, 0.1, "Northridge-01", 1994, "Huntington Beach - Lake St", 6.69, Reverse, 74.7, 77.45, 315.52, 0.2, 1.0, RSN980_NORTHR_HNT000.AT2, RSN980_NORTHR_HNT090.AT2 , RSN980_NORTHR_HNT-UP.AT2  
26, SRSS, 981, -, 1.0, -, 11.8, 21.6, 0.2, "Northridge-01", 1994, "Inglewood - Union Oil", 6.69, Reverse, 37.18, 42.2, 316.02, 0.16, 1.0, RSN981_NORTHR_ING000.AT2, RSN981_NORTHR_ING090.AT2 , RSN981_NORTHR_ING-UP.AT2  
27, SRSS, 984, -, 1.0, -, 7.6, 19.4, 0.4, "Northridge-01", 1994, "LA - 116th St School", 6.69, Reverse, 36.39, 41.17, 301.0, 0.16, 1.0, RSN984_NORTHR_116090.AT2, RSN984_NORTHR_116360.AT2 , RSN984_NORTHR_116-UP.AT2  
28, SRSS, 1014, -, 1.0, -, 21.3, 33.2, 0.1, "Northridge-01", 1994, "LB - City Hall", 6.69, Reverse, 53.94, 57.68, 322.0, 0.3, 1.0, RSN1014_NORTHR_LBC090.AT2, RSN1014_NORTHR_LBC360.AT2 , RSN1014_NORTHR_LBC-UP.AT2  
29, SRSS, 1015, -, 1.0, -, 13.6, 25.8, 0.2, "Northridge-01", 1994, "LB - Rancho Los Cerritos", 6.69, Reverse, 47.79, 51.89, 302.73, 0.16, 1.0, RSN1015_NORTHR_LBR000.AT2, RSN1015_NORTHR_LBR090.AT2 , RSN1015_NORTHR_LBR-UP.AT2  
30, SRSS, 1017, -, 1.0, -, 5.9, 14.4, 0.2, "Northridge-01", 1994, "La Habra - Briarcliff", 6.69, Reverse, 58.32, 59.62, 338.27, 0.25, 1.0, RSN1017_NORTHR_BRC000.AT2, RSN1017_NORTHR_BRC090.AT2 , RSN1017_NORTHR_BRC-UP.AT2  
31, SRSS, 1018, -, 1.0, -, 7.0, 13.8, 0.2, "Northridge-01", 1994, "La Puente - Rimgrove Av", 6.69, Reverse, 56.36, 56.59, 339.52, 0.5, 1.0, RSN1018_NORTHR_RIM015.AT2, RSN1018_NORTHR_RIM105.AT2 , RSN1018_NORTHR_RIM-UP.AT2  
32, SRSS, 1024, -, 1.0, -, 11.2, 21.2, 0.4, "Northridge-01", 1994, "Lakewood - Del Amo Blvd", 6.69, Reverse, 53.56, 56.91, 267.35, 0.1625, 1.0, RSN1024_NORTHR_DEL000.AT2, RSN1024_NORTHR_DEL090.AT2 , RSN1024_NORTHR_DEL-UP.AT2  
33, SRSS, 1025, -, 1.0, -, 8.3, 29.2, 0.1, "Northridge-01", 1994, "Lancaster - Fox Airfield Grnd", 6.69, Reverse, 51.88, 52.12, 268.65, 0.3, 1.0, RSN1025_NORTHR_LAN090.AT2, RSN1025_NORTHR_LAN360.AT2 , RSN1025_NORTHR_LAN-UP.AT2  
34, SRSS, 1033, -, 1.0, -, 9.7, 17.6, 0.1, "Northridge-01", 1994, "Littlerock - Brainard Can", 6.69, Reverse, 46.31, 46.58, 485.67, 0.2, 1.0, RSN1033_NORTHR_LIT090.AT2, RSN1033_NORTHR_LIT180.AT2 , RSN1033_NORTHR_LIT-UP.AT2  
35, SRSS, 1036, -, 1.0, -, 11.3, 17.8, 0.0, "Northridge-01", 1994, "Mojave - Hwys 14 & 58", 6.69, Reverse, 85.28, 85.43, 331.74, 0.3, 1.0, RSN1036_NORTHR_MJH000.AT2, RSN1036_NORTHR_MJH090.AT2 , RSN1036_NORTHR_MJH-UP.AT2  
36, SRSS, 1037, -, 1.0, -, 7.7, 13.4, 0.0, "Northridge-01", 1994, "Mojave - Oak Creek Canyon", 6.69, Reverse, 75.64, 75.8, 422.73, 0.3, 1.0, RSN1037_NORTHR_MJO000.AT2, RSN1037_NORTHR_MJO090.AT2 , RSN1037_NORTHR_MJO-UP.AT2  
37, SRSS, 1038, -, 1.0, -, 7.8, 13.8, 0.3, "Northridge-01", 1994, "Montebello - Bluff Rd.", 6.69, Reverse, 43.22, 45.03, 316.01, 0.125, 1.0, RSN1038_NORTHR_BLF206.AT2, RSN1038_NORTHR_BLF296.AT2 , RSN1038_NORTHR_BLF-UP.AT2  
38, SRSS, 1040, -, 1.0, -, 8.5, 14.0, 0.1, "Northridge-01", 1994, "Mt Baldy - Elementary Sch", 6.69, Reverse, 71.3, 71.47, 444.74, 0.3, 1.0, RSN1040_NORTHR_BAL090.AT2, RSN1040_NORTHR_BAL180.AT2 , RSN1040_NORTHR_BAL-UP.AT2  
39, SRSS, 1043, -, 1.0, -, 13.1, 26.3, 0.1, "Northridge-01", 1994, "Neenach - Sacatara Ck", 6.69, Reverse, 51.61, 51.85, 337.63, 0.12, 1.0, RSN1043_NORTHR_NEE090.AT2, RSN1043_NORTHR_NEE180.AT2 , RSN1043_NORTHR_NEE-UP.AT2  
40, SRSS, 1046, -, 1.0, -, 12.5, 22.0, 0.1, "Northridge-01", 1994, "Newport Bch - Irvine Ave. F.S", 6.69, Reverse, 83.01, 85.49, 339.6, 0.2, 1.0, RSN1046_NORTHR_NBI000.AT2, RSN1046_NORTHR_NBI090.AT2 , RSN1046_NORTHR_NBI-UP.AT2  
41, SRSS, 1047, -, 1.0, -, 8.9, 25.1, 0.1, "Northridge-01", 1994, "Newport Bch - Newp & Coast", 6.69, Reverse, 82.03, 84.54, 340.65, 0.12, 1.0, RSN1047_NORTHR_NEW090.AT2, RSN1047_NORTHR_NEW180.AT2 , RSN1047_NORTHR_NEW-UP.AT2  
42, SRSS, 1053, -, 1.0, -, 9.5, 18.0, 0.1, "Northridge-01", 1994, "Palmdale - Hwy 14 & Palmdale", 6.69, Reverse, 41.37, 41.67, 551.56, 0.2, 1.0, RSN1053_NORTHR_PHP000.AT2, RSN1053_NORTHR_PHP270.AT2 , RSN1053_NORTHR_PHP-UP.AT2  
43, SRSS, 1056, -, 1.0, -, 12.0, 28.4, 0.1, "Northridge-01", 1994, "Phelan - Wilson Ranch", 6.69, Reverse, 85.75, 85.9, 333.41, 0.2, 1.0, RSN1056_NORTHR_PHE090.AT2, RSN1056_NORTHR_PHE180.AT2 , RSN1056_NORTHR_PHE-UP.AT2  
44, SRSS, 1058, -, 1.0, -, 5.8, 10.3, 0.6, "Northridge-01", 1994, "Point Mugu - Laguna Peak", 6.69, Reverse, 36.61, 41.93, 527.7, 0.375, 1.0, RSN1058_NORTHR_PTM000.AT2, RSN1058_NORTHR_PTM090.AT2 , RSN1058_NORTHR_PTM-UP.AT2  
45, SRSS, 1059, -, 1.0, -, 10.5, 24.3, 0.2, "Northridge-01", 1994, "Port Hueneme - Naval Lab.", 6.69, Reverse, 47.58, 51.78, 248.98, 0.14, 1.0, RSN1059_NORTHR_PTH090.AT2, RSN1059_NORTHR_PTH180.AT2 , RSN1059_NORTHR_PTH-UP.AT2  
46, SRSS, 1060, -, 1.0, -, 11.0, 15.4, 0.1, "Northridge-01", 1994, "Rancho Cucamonga - Deer Can", 6.69, Reverse, 79.83, 79.99, 509.1, 0.3, 1.0, RSN1060_NORTHR_CUC090.AT2, RSN1060_NORTHR_CUC180.AT2 , RSN1060_NORTHR_CUC-UP.AT2  
47, SRSS, 1061, -, 1.0, -, 8.1, 14.5, 0.1, "Northridge-01", 1994, "Rancho Palos Verdes - Hawth", 6.69, Reverse, 48.02, 52.18, 580.03, 0.3, 1.0, RSN1061_NORTHR_RAN000.AT2, RSN1061_NORTHR_RAN090.AT2 , RSN1061_NORTHR_RAN-UP.AT2  
48, SRSS, 1062, -, 1.0, -, 6.6, 13.1, 0.2, "Northridge-01", 1994, "Rancho Palos Verdes - Luconia", 6.69, Reverse, 50.47, 54.45, 508.83, 0.375, 1.0, RSN1062_NORTHR_LUC005.AT2, RSN1062_NORTHR_LUC095.AT2 , RSN1062_NORTHR_LUC-UP.AT2  
49, SRSS, 1064, -, 1.0, -, 6.2, 12.0, 0.0, "Northridge-01", 1994, "Riverside Airport", 6.69, Reverse, 98.83, 98.95, 389.95, 0.3, 1.0, RSN1064_NORTHR_RIV180.AT2, RSN1064_NORTHR_RIV270.AT2 , RSN1064_NORTHR_RIV-UP.AT2  
50, SRSS, 1065, -, 1.0, -, 6.9, 18.2, 0.2, "Northridge-01", 1994, "Rolling Hills Est-Rancho Vista", 6.69, Reverse, 44.89, 49.32, 473.25, 0.3, 1.0, RSN1065_NORTHR_RHE090.AT2, RSN1065_NORTHR_RHE360.AT2 , RSN1065_NORTHR_RHE-UP.AT2  
51, SRSS, 1066, -, 1.0, -, 12.0, 19.7, 0.1, "Northridge-01", 1994, "Rosamond - Airport", 6.69, Reverse, 64.6, 64.8, 320.75, 0.3, 1.0, RSN1066_NORTHR_RMA000.AT2, RSN1066_NORTHR_RMA090.AT2 , RSN1066_NORTHR_RMA-UP.AT2  
52, SRSS, 1067, -, 1.0, -, 9.7, 15.2, 0.1, "Northridge-01", 1994, "San Bernardino - CSUSB Gr", 6.69, Reverse, 103.04, 103.16, 336.92, 0.3, 1.0, RSN1067_NORTHR_BER000.AT2, RSN1067_NORTHR_BER090.AT2 , RSN1067_NORTHR_BER-UP.AT2  
53, SRSS, 1069, -, 1.0, -, 9.4, 16.8, 0.1, "Northridge-01", 1994, "San Bernardino - E & Hospitality", 6.69, Reverse, 108.18, 108.29, 296.97, 0.2, 1.0, RSN1069_NORTHR_HOS090.AT2, RSN1069_NORTHR_HOS180.AT2 , RSN1069_NORTHR_HOS-UP.AT2  
54, SRSS, 1071, -, 1.0, -, 11.9, 28.5, 0.1, "Northridge-01", 1994, "San Jacinto - CDF Fire Station", 6.69, Reverse, 147.47, 147.55, 306.76, 0.16, 1.0, RSN1071_NORTHR_CDF000.AT2, RSN1071_NORTHR_CDF090.AT2 , RSN1071_NORTHR_CDF-UP.AT2  
55, SRSS, 1073, -, 1.0, -, 7.0, 13.4, 0.1, "Northridge-01", 1994, "San Pedro - Palos Verdes", 6.69, Reverse, 53.24, 57.03, 477.92, 0.3, 1.0, RSN1073_NORTHR_SAP000.AT2, RSN1073_NORTHR_SAP090.AT2 , RSN1073_NORTHR_SAP-UP.AT2  
56, SRSS, 1074, -, 1.0, -, 7.4, 15.9, 0.1, "Northridge-01", 1994, "Sandberg - Bald Mtn", 6.69, Reverse, 41.26, 41.56, 421.0, 0.12, 1.0, RSN1074_NORTHR_SAN090.AT2, RSN1074_NORTHR_SAN180.AT2 , RSN1074_NORTHR_SAN-UP.AT2  
57, SRSS, 1075, -, 1.0, -, 13.9, 25.5, 0.2, "Northridge-01", 1994, "Santa Barbara - UCSB Goleta", 6.69, Reverse, 107.2, 109.13, 312.98, 0.2, 1.0, RSN1075_NORTHR_SBG000.AT2, RSN1075_NORTHR_SBG090.AT2 , RSN1075_NORTHR_SBG-UP.AT2  
58, SRSS, 1076, -, 1.0, -, 7.5, 14.8, 0.4, "Northridge-01", 1994, "Santa Fe Springs - E.Joslin", 6.69, Reverse, 48.06, 50.22, 339.06, 0.125, 1.0, RSN1076_NORTHR_EJS030.AT2, RSN1076_NORTHR_EJS120.AT2 , RSN1076_NORTHR_EJS-UP.AT2  
59, SRSS, 1079, -, 1.0, -, 12.2, 18.7, 0.2, "Northridge-01", 1994, "Seal Beach - Office Bldg", 6.69, Reverse, 61.46, 64.76, 296.62, 0.16, 1.0, RSN1079_NORTHR_SEA000.AT2, RSN1079_NORTHR_SEA090.AT2 , RSN1079_NORTHR_SEA-UP.AT2  
60, SRSS, 1088, -, 1.0, -, 6.3, 14.2, 0.5, "Northridge-01", 1994, "Terminal Island - S Seaside", 6.69, Reverse, 53.43, 57.2, 260.6, 0.15, 1.0, RSN1088_NORTHR_SSE240.AT2, RSN1088_NORTHR_SSE330.AT2 , RSN1088_NORTHR_SSE-UP.AT2  
61, SRSS, 1090, -, 1.0, -, 9.7, 18.0, 0.1, "Northridge-01", 1994, "Tustin - E Sycamore", 6.69, Reverse, 81.66, 83.72, 303.09, 0.375, 1.0, RSN1090_NORTHR_SYC135.AT2, RSN1090_NORTHR_SYC225.AT2 , RSN1090_NORTHR_SYC-UP.AT2  
62, SRSS, 1092, -, 1.0, -, 22.2, 39.0, 0.2, "Northridge-01", 1994, "Ventura - Harbor & California", 6.69, Reverse, 54.28, 58.0, 358.95, 0.25, 1.0, RSN1092_NORTHR_VEN090.AT2, RSN1092_NORTHR_VEN360.AT2 , RSN1092_NORTHR_VEN-UP.AT2  
63, SRSS, 1093, -, 1.0, -, 9.5, 16.1, 0.1, "Northridge-01", 1994, "Villa Park - Serrano Ave", 6.69, Reverse, 76.38, 77.56, 416.93, 0.125, 1.0, RSN1093_NORTHR_SER000.AT2, RSN1093_NORTHR_SER270.AT2 , RSN1093_NORTHR_SER-UP.AT2  
64, SRSS, 1094, -, 1.0, -, 10.7, 19.7, 0.1, "Northridge-01", 1994, "West Covina - S Orange Ave", 6.69, Reverse, 51.46, 51.7, 334.69, 0.075, 1.0, RSN1094_NORTHR_SOR225.AT2, RSN1094_NORTHR_SOR315.AT2 , RSN1094_NORTHR_SOR-UP.AT2  
65, SRSS, 1095, -, 1.0, -, 7.5, 13.9, 0.1, "Northridge-01", 1994, "Whittier - S. Alta Dr", 6.69, Reverse, 48.36, 49.1, 511.83, 0.5, 1.0, RSN1095_NORTHR_SAL000.AT2, RSN1095_NORTHR_SAL090.AT2 , RSN1095_NORTHR_SAL-UP.AT2  
66, SRSS, 1096, -, 1.0, -, 10.0, 18.4, 0.1, "Northridge-01", 1994, "Wrightwood - Jackson Flat", 6.69, Reverse, 64.46, 64.66, 662.7, 0.24, 1.0, RSN1096_NORTHR_WWJ090.AT2, RSN1096_NORTHR_WWJ180.AT2 , RSN1096_NORTHR_WWJ-UP.AT2  
67, SRSS, 1097, -, 1.0, -, 13.5, 20.1, 0.0, "Northridge-01", 1994, "Wrightwood - Nielson Ranch", 6.69, Reverse, 81.54, 81.69, 506.0, 0.24, 1.0, RSN1097_NORTHR_WWN090.AT2, RSN1097_NORTHR_WWN180.AT2 , RSN1097_NORTHR_WWN-UP.AT2  
68, SRSS, 1098, -, 1.0, -, 12.6, 19.8, 0.1, "Northridge-01", 1994, "Wrightwood - Swarthout", 6.69, Reverse, 71.51, 71.69, 476.64, 0.3, 1.0, RSN1098_NORTHR_WRI090.AT2, RSN1098_NORTHR_WRI180.AT2 , RSN1098_NORTHR_WRI-UP.AT2  

 These records were obtained from the NGA-West2 On-Line Ground-Motion Database Tool
 These records are UNSCALED, AS RECORDED
 Filename Extension: 
   ,AT2 = Acceleration
   ,VT2 = Velocity
   ,DT2 = Displacement
 The users of the NGA-West2 databases, flatfiles, models and reports are requested to acknowledge the Pacific Earthquake Engineering Research Center (PEER) in their work and publications.

 -- Scaled Spectra used in Search & Scaling --
Period (sec),Arithmetic Mean pSa (g),Arithmetic Mean + Sigma pSa (g),Arithmetic Mean - Sigma pSa (g),RSN-943 SRSS pSa (g),RSN-944 SRSS pSa (g),RSN-946 SRSS pSa (g),RSN-948 SRSS pSa (g),RSN-950 SRSS pSa (g),RSN-951 SRSS pSa (g),RSN-955 SRSS pSa (g),RSN-956 SRSS pSa (g),RSN-958 SRSS pSa (g),RSN-961 SRSS pSa (g),RSN-962 SRSS pSa (g),RSN-964 SRSS pSa (g),RSN-965 SRSS pSa (g),RSN-966 SRSS pSa (g),RSN-967 SRSS pSa (g),RSN-968 SRSS pSa (g),RSN-969 SRSS pSa (g),RSN-970 SRSS pSa (g),RSN-972 SRSS pSa (g),RSN-973 SRSS pSa (g),RSN-975 SRSS pSa (g),RSN-976 SRSS pSa (g),RSN-977 SRSS pSa (g),RSN-979 SRSS pSa (g),RSN-980 SRSS pSa (g),RSN-981 SRSS pSa (g),RSN-984 SRSS pSa (g),RSN-1014 SRSS pSa (g),RSN-1015 SRSS pSa (g),RSN-1017 SRSS pSa (g),RSN-1018 SRSS pSa (g),RSN-1024 SRSS pSa (g),RSN-1025 SRSS pSa (g),RSN-1033 SRSS pSa (g),RSN-1036 SRSS pSa (g),RSN-1037 SRSS pSa (g),RSN-1038 SRSS pSa (g),RSN-1040 SRSS pSa (g),RSN-1043 SRSS pSa (g),RSN-1046 SRSS pSa (g),RSN-1047 SRSS pSa (g),RSN-1053 SRSS pSa (g),RSN-1056 SRSS pSa (g),RSN-1058 SRSS pSa (g),RSN-1059 SRSS pSa (g),RSN-1060 SRSS pSa (g),RSN-1061 SRSS pSa (g),RSN-1062 SRSS pSa (g),RSN-1064 SRSS pSa (g),RSN-1065 SRSS pSa (g),RSN-1066 SRSS pSa (g),RSN-1067 SRSS pSa (g),RSN-1069 SRSS pSa (g),RSN-1071 SRSS pSa (g),RSN-1073 SRSS pSa (g),RSN-1074 SRSS pSa (g),RSN-1075 SRSS pSa (g),RSN-1076 SRSS pSa (g),RSN-1079 SRSS pSa (g),RSN-1088 SRSS pSa (g),RSN-1090 SRSS pSa (g),RSN-1092 SRSS pSa (g),RSN-1093 SRSS pSa (g),RSN-1094 SRSS pSa (g),RSN-1095 SRSS pSa (g),RSN-1096 SRSS pSa (g),RSN-1097 SRSS pSa (g),RSN-1098 SRSS pSa (g)
0.01,0.12823899,0.19428769,0.08464375,0.07764964,0.10059332,0.08332023,0.15030974,0.16780328,0.1215951,0.14297508,0.17828238,0.17449187,0.13518563,0.12929469,0.15599375,0.10121925,0.13421685,0.21932455,0.28277273,0.08579213,0.20388465,0.14552221,0.1498589,0.10526099,0.0894955,0.07930387,0.11883851,0.11551257,0.13861923,0.25198701,0.06433694,0.09600194,0.237743,0.1503979,0.18525066,0.10477178,0.09474979,0.06511431,0.07879975,0.22271738,0.10742828,0.0893463,0.07426826,0.13463309,0.09163961,0.07498023,0.26385393,0.13532553,0.08936551,0.09130154,0.20015375,0.08813956,0.15825696,0.08637461,0.07756737,0.12898989,0.12894036,0.1398737,0.13493839,0.10427839,0.19164542,0.10550295,0.24165288,0.10072056,0.09311061,0.06108795,0.09470225,0.08809324,0.06789849,0.06031805,0.07687633
0.02,0.12808035,0.19440337,0.08438421,0.07839857,0.0996723,0.08379662,0.14920561,0.16668476,0.12076317,0.14105745,0.17681711,0.17603284,0.13404539,0.12778276,0.15313068,0.10085046,0.13304178,0.21737089,0.2866067,0.08463371,0.20200581,0.14746679,0.14852853,0.10392393,0.08836608,0.07877427,0.11826577,0.11653957,0.13945249,0.2547937,0.06476697,0.09692196,0.23707334,0.14978273,0.18335278,0.10583782,0.0947209,0.06566184,0.07959311,0.22303399,0.10628103,0.08895898,0.07504509,0.13361138,0.09092348,0.07510618,0.26719329,0.13658824,0.08837328,0.09223615,0.19849163,0.08914067,0.1601864,0.08734376,0.07673664,0.12798469,0.12824454,0.14144068,0.13460046,0.10522367,0.1895552,0.10517163,0.24167417,0.09913774,0.09390124,0.06058789,0.09365086,0.08782415,0.06786917,0.06073195,0.07689619
