
 PEER Ground Motion Database, Time Series Search Report -- NGA-West2 -- 2021-09-08


 -- Summary of PEER Ground Motion Database Search Criteria --
Magnitude Min:, 7.5
Magnitude Max:, 7.8
Rrup Min (km):, 55.0
Rrup Max (km):, 80.0
Rjb Min (km):, -1.0e-06
Rjb Max (km):, 99999
Vs30 Min (m/sec):, -1.0e-06
Vs30 Max (m/sec):, 99999
D9-95 Min (sec):, -1.0e-06
D9-95 Max (sec):, 99999
Scale Factor Min:, -1.0e-06
Scale Factor Max:, 99999
Period Array:, 
Weight Array:, 
Record Sequence Number:, 
Earthquake Name:, chi-chi
Station Name:, 
User-Defined Maximum Number of Records:, 
Pulse:, 1
Damping Ratio:, 0.05
Scaling Method:, No Scaling
Suite Average:, Arithmetic
Single-Period-Scaling Period (sec):, 
Component:, SRSS
Fault Type:, All Types


 -- Summary of Metadata of Selected Records --
Result ID, Spectral Ordinate, Record Sequence Number, Mean Squared Error, Scale Factor, Tp-Pulse Period (sec), 5-75% Duration (sec), 5-95% Duration (sec), Arias Intensity (m/sec), Earthquake Name, Year, Station Name, Magnitude, Mechanism, Rjb (km), Rrup (km), Vs30 (m/sec), Lowest Useable Frequency (Hz), Initial-search Scale Factor, Horizontal-1 Acc. Filename, Horizontal-2 Acc. Filename, Vertical Acc. Filename
1, SRSS, 1185, -, 1.0, -, 42.8, 83.3, 0.2, "Chi-Chi_ Taiwan", 1999, "CHY012", 7.62, Reverse Oblique, 59.04, 59.04, 198.4, 0.0375, 1.0, RSN1185_CHICHI_CHY012-N.AT2, RSN1185_CHICHI_CHY012-W.AT2 , RSN1185_CHICHI_CHY012-V.AT2  
2, SRSS, 1188, -, 1.0, -, 36.3, 74.6, 0.4, "Chi-Chi_ Taiwan", 1999, "CHY016", 7.62, Reverse Oblique, 66.64, 66.64, 200.86, 0.0375, 1.0, RSN1188_CHICHI_CHY016-N.AT2, RSN1188_CHICHI_CHY016-W.AT2 , RSN1188_CHICHI_CHY016-V.AT2  
3, SRSS, 1189, -, 1.0, -, 40.9, 68.3, 0.3, "Chi-Chi_ Taiwan", 1999, "CHY017", 7.62, Reverse Oblique, 59.09, 59.09, 190.57, 0.0375, 1.0, RSN1189_CHICHI_CHY017-N.AT2, RSN1189_CHICHI_CHY017-W.AT2 , RSN1189_CHICHI_CHY017-V.AT2  
4, SRSS, 1191, -, 1.0, -, 24.9, 39.8, 0.1, "Chi-Chi_ Taiwan", 1999, "CHY022", 7.62, Reverse Oblique, 63.21, 64.15, 564.07, 0.0375, 1.0, RSN1191_CHICHI_CHY022-N.AT2, RSN1191_CHICHI_CHY022-W.AT2 , RSN1191_CHICHI_CHY022-V.AT2  
5, SRSS, 1207, -, 1.0, -, 27.6, 46.9, 0.2, "Chi-Chi_ Taiwan", 1999, "CHY044", 7.62, Reverse Oblique, 55.13, 55.13, 194.47, 0.075, 1.0, RSN1207_CHICHI_CHY044-E.AT2, RSN1207_CHICHI_CHY044-N.AT2 , RSN1207_CHICHI_CHY044-V.AT2  
6, SRSS, 1214, -, 1.0, -, 26.1, 39.1, 0.1, "Chi-Chi_ Taiwan", 1999, "CHY057", 7.62, Reverse Oblique, 56.67, 56.93, 411.46, 0.0375, 1.0, RSN1214_CHICHI_CHY057-E.AT2, RSN1214_CHICHI_CHY057-N.AT2 , RSN1214_CHICHI_CHY057-V.AT2  
7, SRSS, 1215, -, 1.0, -, 30.8, 44.9, 0.2, "Chi-Chi_ Taiwan", 1999, "CHY058", 7.62, Reverse Oblique, 59.79, 59.8, 269.28, 0.0375, 1.0, RSN1215_CHICHI_CHY058-E.AT2, RSN1215_CHICHI_CHY058-N.AT2 , RSN1215_CHICHI_CHY058-V.AT2  
8, SRSS, 1216, -, 1.0, -, 33.6, 51.3, 0.2, "Chi-Chi_ Taiwan", 1999, "CHY059", 7.62, Reverse Oblique, 73.26, 73.26, 191.09, 0.0375, 1.0, RSN1216_CHICHI_CHY059-E.AT2, RSN1216_CHICHI_CHY059-N.AT2 , RSN1216_CHICHI_CHY059-V.AT2  
9, SRSS, 1217, -, 1.0, -, 35.9, 50.3, 0.2, "Chi-Chi_ Taiwan", 1999, "CHY060", 7.62, Reverse Oblique, 68.86, 68.86, 228.92, 0.05, 1.0, RSN1217_CHICHI_CHY060-E.AT2, RSN1217_CHICHI_CHY060-N.AT2 , RSN1217_CHICHI_CHY060-V.AT2  
10, SRSS, 1218, -, 1.0, -, 24.7, 38.0, 0.1, "Chi-Chi_ Taiwan", 1999, "CHY061", 7.62, Reverse Oblique, 57.5, 58.75, 538.69, 0.0875, 1.0, RSN1218_CHICHI_CHY061-E.AT2, RSN1218_CHICHI_CHY061-N.AT2 , RSN1218_CHICHI_CHY061-V.AT2  
11, SRSS, 1219, -, 1.0, -, 21.4, 34.3, 0.1, "Chi-Chi_ Taiwan", 1999, "CHY062", 7.62, Reverse Oblique, 56.93, 57.5, 602.63, 0.25, 1.0, RSN1219_CHICHI_CHY062-E.AT2, RSN1219_CHICHI_CHY062-N.AT2 , RSN1219_CHICHI_CHY062-V.AT2  
12, SRSS, 1220, -, 1.0, -, 28.5, 43.4, 0.2, "Chi-Chi_ Taiwan", 1999, "CHY063", 7.62, Reverse Oblique, 71.94, 72.23, 246.88, 0.0375, 1.0, RSN1220_CHICHI_CHY063-E.AT2, RSN1220_CHICHI_CHY063-N.AT2 , RSN1220_CHICHI_CHY063-V.AT2  
13, SRSS, 1226, -, 1.0, -, 33.7, 49.0, 0.2, "Chi-Chi_ Taiwan", 1999, "CHY071", 7.62, Reverse Oblique, 78.74, 78.74, 202.95, 0.0375, 1.0, RSN1226_CHICHI_CHY071-E.AT2, RSN1226_CHICHI_CHY071-N.AT2 , RSN1226_CHICHI_CHY071-V.AT2  
14, SRSS, 1229, -, 1.0, -, 26.4, 40.8, 0.2, "Chi-Chi_ Taiwan", 1999, "CHY078", 7.62, Reverse Oblique, 77.19, 77.2, 160.67, 0.0375, 1.0, RSN1229_CHICHI_CHY078-E.AT2, RSN1229_CHICHI_CHY078-N.AT2 , RSN1229_CHICHI_CHY078-V.AT2  
15, SRSS, 1237, -, 1.0, -, 31.3, 46.5, 0.3, "Chi-Chi_ Taiwan", 1999, "CHY090", 7.62, Reverse Oblique, 58.42, 58.42, 180.33, 0.0375, 1.0, RSN1237_CHICHI_CHY090-E.AT2, RSN1237_CHICHI_CHY090-N.AT2 , RSN1237_CHICHI_CHY090-V.AT2  
16, SRSS, 1242, -, 1.0, -, 40.5, 73.9, 0.2, "Chi-Chi_ Taiwan", 1999, "CHY099", 7.62, Reverse Oblique, 65.27, 65.28, 228.84, 0.025, 1.0, RSN1242_CHICHI_CHY099-N.AT2, RSN1242_CHICHI_CHY099-W.AT2 , RSN1242_CHICHI_CHY099-V.AT2  
17, SRSS, 1256, -, 1.0, -, 14.1, 24.4, 0.1, "Chi-Chi_ Taiwan", 1999, "HWA002", 7.62, Reverse Oblique, 53.3, 56.93, 789.18, 0.075, 1.0, RSN1256_CHICHI_HWA002-N.AT2, RSN1256_CHICHI_HWA002-W.AT2 , RSN1256_CHICHI_HWA002-V.AT2  
18, SRSS, 1257, -, 1.0, -, 14.4, 25.9, 0.2, "Chi-Chi_ Taiwan", 1999, "HWA003", 7.62, Reverse Oblique, 52.46, 56.14, 1525.85, 0.05, 1.0, RSN1257_CHICHI_HWA003-N.AT2, RSN1257_CHICHI_HWA003-W.AT2 , RSN1257_CHICHI_HWA003-V.AT2  
19, SRSS, 1260, -, 1.0, -, 11.8, 35.8, 0.2, "Chi-Chi_ Taiwan", 1999, "HWA007", 7.62, Reverse Oblique, 52.62, 56.3, 358.72, 0.025, 1.0, RSN1260_CHICHI_HWA007-E.AT2, RSN1260_CHICHI_HWA007-N.AT2 , RSN1260_CHICHI_HWA007-V.AT2  
20, SRSS, 1261, -, 1.0, -, 13.7, 33.4, 0.2, "Chi-Chi_ Taiwan", 1999, "HWA009", 7.62, Reverse Oblique, 52.37, 56.06, 373.23, 0.0625, 1.0, RSN1261_CHICHI_HWA009-E.AT2, RSN1261_CHICHI_HWA009-N.AT2 , RSN1261_CHICHI_HWA009-V.AT2  
21, SRSS, 1263, -, 1.0, -, 11.1, 33.7, 0.2, "Chi-Chi_ Taiwan", 1999, "HWA012", 7.62, Reverse Oblique, 53.0, 56.65, 414.42, 0.15, 1.0, RSN1263_CHICHI_HWA012-E.AT2, RSN1263_CHICHI_HWA012-N.AT2 , RSN1263_CHICHI_HWA012-V.AT2  
22, SRSS, 1265, -, 1.0, -, 10.6, 32.5, 0.4, "Chi-Chi_ Taiwan", 1999, "HWA014", 7.62, Reverse Oblique, 51.49, 55.23, 277.28, 0.025, 1.0, RSN1265_CHICHI_HWA014-E.AT2, RSN1265_CHICHI_HWA014-N.AT2 , RSN1265_CHICHI_HWA014-V.AT2  
23, SRSS, 1269, -, 1.0, -, 13.5, 29.6, 0.4, "Chi-Chi_ Taiwan", 1999, "HWA019", 7.62, Reverse Oblique, 51.87, 55.59, 494.82, 0.025, 1.0, RSN1269_CHICHI_HWA019-E.AT2, RSN1269_CHICHI_HWA019-N.AT2 , RSN1269_CHICHI_HWA019-V.AT2  
24, SRSS, 1271, -, 1.0, -, 14.5, 22.3, 0.3, "Chi-Chi_ Taiwan", 1999, "HWA022", 7.62, Reverse Oblique, 58.76, 62.07, 567.64, 0.025, 1.0, RSN1271_CHICHI_HWA022-E.AT2, RSN1271_CHICHI_HWA022-N.AT2 , RSN1271_CHICHI_HWA022-V.AT2  
25, SRSS, 1290, -, 1.0, -, 14.5, 26.6, 0.1, "Chi-Chi_ Taiwan", 1999, "HWA043", 7.62, Reverse Oblique, 54.5, 58.05, 543.06, 0.0625, 1.0, RSN1290_CHICHI_HWA043-E.AT2, RSN1290_CHICHI_HWA043-N.AT2 , RSN1290_CHICHI_HWA043-V.AT2  
26, SRSS, 1291, -, 1.0, -, 16.1, 31.4, 0.1, "Chi-Chi_ Taiwan", 1999, "HWA044", 7.62, Reverse Oblique, 54.68, 58.22, 534.41, 0.025, 1.0, RSN1291_CHICHI_HWA044-E.AT2, RSN1291_CHICHI_HWA044-N.AT2 , RSN1291_CHICHI_HWA044-V.AT2  
27, SRSS, 1292, -, 1.0, -, 5.8, 13.5, 0.5, "Chi-Chi_ Taiwan", 1999, "HWA045", 7.62, Reverse Oblique, 60.2, 63.43, 484.45, 0.05, 1.0, RSN1292_CHICHI_HWA045-N.AT2, RSN1292_CHICHI_HWA045-W.AT2 , RSN1292_CHICHI_HWA045-V.AT2  
28, SRSS, 1305, -, 1.0, -, 14.9, 26.8, 0.0, "Chi-Chi_ Taiwan", 1999, "HWA060", 7.62, Reverse Oblique, 53.92, 57.51, 573.04, 0.025, 1.0, RSN1305_CHICHI_HWA060-E.AT2, RSN1305_CHICHI_HWA060-N.AT2 , RSN1305_CHICHI_HWA060-V.AT2  
29, SRSS, 1321, -, 1.0, -, 13.9, 26.5, 0.1, "Chi-Chi_ Taiwan", 1999, "ILA021", 7.62, Reverse Oblique, 74.26, 76.9, 573.04, 0.05, 1.0, RSN1321_CHICHI_ILA021-N.AT2, RSN1321_CHICHI_ILA021-W.AT2 , RSN1321_CHICHI_ILA021-V.AT2  
30, SRSS, 1322, -, 1.0, -, 15.3, 27.9, 0.0, "Chi-Chi_ Taiwan", 1999, "ILA024", 7.62, Reverse Oblique, 64.79, 67.8, 671.52, 0.025, 1.0, RSN1322_CHICHI_ILA024-N.AT2, RSN1322_CHICHI_ILA024-W.AT2 , RSN1322_CHICHI_ILA024-V.AT2  
31, SRSS, 1333, -, 1.0, -, 12.7, 19.8, 0.1, "Chi-Chi_ Taiwan", 1999, "ILA043", 7.62, Reverse Oblique, 74.53, 77.17, 573.04, 0.5, 1.0, RSN1333_CHICHI_ILA043-E.AT2, RSN1333_CHICHI_ILA043-N.AT2 , RSN1333_CHICHI_ILA043-V.AT2  
32, SRSS, 1335, -, 1.0, -, 15.2, 27.8, 0.1, "Chi-Chi_ Taiwan", 1999, "ILA046", 7.62, Reverse Oblique, 77.06, 79.62, 396.93, 0.05, 1.0, RSN1335_CHICHI_ILA046-E.AT2, RSN1335_CHICHI_ILA046-N.AT2 , RSN1335_CHICHI_ILA046-V.AT2  
33, SRSS, 1338, -, 1.0, -, 15.2, 24.3, 0.1, "Chi-Chi_ Taiwan", 1999, "ILA050", 7.62, Reverse Oblique, 63.82, 66.88, 621.06, 0.05, 1.0, RSN1338_CHICHI_ILA050-E.AT2, RSN1338_CHICHI_ILA050-N.AT2 , RSN1338_CHICHI_ILA050-V.AT2  
34, SRSS, 1339, -, 1.0, -, 19.8, 36.9, 0.2, "Chi-Chi_ Taiwan", 1999, "ILA051", 7.62, Reverse Oblique, 76.45, 79.03, 520.64, 0.025, 1.0, RSN1339_CHICHI_ILA051-E.AT2, RSN1339_CHICHI_ILA051-N.AT2 , RSN1339_CHICHI_ILA051-V.AT2  
35, SRSS, 1345, -, 1.0, -, 15.8, 23.7, 0.1, "Chi-Chi_ Taiwan", 1999, "ILA061", 7.62, Reverse Oblique, 75.96, 78.55, 497.73, 0.025, 1.0, RSN1345_CHICHI_ILA061-N.AT2, RSN1345_CHICHI_ILA061-W.AT2 , RSN1345_CHICHI_ILA061-V.AT2  
36, SRSS, 1346, -, 1.0, -, 15.2, 26.7, 0.1, "Chi-Chi_ Taiwan", 1999, "ILA062", 7.62, Reverse Oblique, 70.43, 73.22, 447.51, 0.025, 1.0, RSN1346_CHICHI_ILA062-N.AT2, RSN1346_CHICHI_ILA062-W.AT2 , RSN1346_CHICHI_ILA062-V.AT2  
37, SRSS, 1347, -, 1.0, -, 13.7, 23.3, 0.1, "Chi-Chi_ Taiwan", 1999, "ILA063", 7.62, Reverse Oblique, 57.69, 61.06, 996.51, 0.025, 1.0, RSN1347_CHICHI_ILA063-N.AT2, RSN1347_CHICHI_ILA063-W.AT2 , RSN1347_CHICHI_ILA063-V.AT2  
38, SRSS, 1348, -, 1.0, -, 13.8, 24.9, 0.1, "Chi-Chi_ Taiwan", 1999, "ILA064", 7.62, Reverse Oblique, 69.5, 72.32, 488.61, 0.025, 1.0, RSN1348_CHICHI_ILA064-N.AT2, RSN1348_CHICHI_ILA064-W.AT2 , RSN1348_CHICHI_ILA064-V.AT2  
39, SRSS, 1349, -, 1.0, -, 14.9, 25.7, 0.2, "Chi-Chi_ Taiwan", 1999, "ILA066", 7.62, Reverse Oblique, 67.44, 70.35, 481.17, 0.025, 1.0, RSN1349_CHICHI_ILA066-N.AT2, RSN1349_CHICHI_ILA066-W.AT2 , RSN1349_CHICHI_ILA066-V.AT2  
40, SRSS, 1360, -, 1.0, -, 26.6, 42.5, 0.0, "Chi-Chi_ Taiwan", 1999, "KAU018", 7.62, Reverse Oblique, 76.7, 78.41, 538.69, 0.025, 1.0, RSN1360_CHICHI_KAU018-E.AT2, RSN1360_CHICHI_KAU018-N.AT2 , RSN1360_CHICHI_KAU018-V.AT2  
41, SRSS, 1361, -, 1.0, -, 31.1, 40.4, 0.3, "Chi-Chi_ Taiwan", 1999, "KAU020", 7.62, Reverse Oblique, 72.17, 74.48, 373.33, 0.025, 1.0, RSN1361_CHICHI_KAU020-E.AT2, RSN1361_CHICHI_KAU020-N.AT2 , RSN1361_CHICHI_KAU020-V.AT2  
42, SRSS, 1387, -, 1.0, -, 25.2, 37.2, 0.0, "Chi-Chi_ Taiwan", 1999, "KAU069", 7.62, Reverse Oblique, 67.82, 70.71, 500.15, 0.125, 1.0, RSN1387_CHICHI_KAU069-E.AT2, RSN1387_CHICHI_KAU069-N.AT2 , RSN1387_CHICHI_KAU069-V.AT2  
43, SRSS, 1464, -, 1.0, -, 19.5, 34.2, 0.2, "Chi-Chi_ Taiwan", 1999, "TCU006", 7.62, Reverse Oblique, 72.52, 72.61, 607.4, 0.025, 1.0, RSN1464_CHICHI_TCU006-E.AT2, RSN1464_CHICHI_TCU006-N.AT2 , RSN1464_CHICHI_TCU006-V.AT2  
44, SRSS, 1469, -, 1.0, -, 10.2, 18.0, 0.2, "Chi-Chi_ Taiwan", 1999, "TCU011", 7.62, Reverse Oblique, 74.41, 75.17, 471.07, 0.0375, 1.0, RSN1469_CHICHI_TCU011-E.AT2, RSN1469_CHICHI_TCU011-N.AT2 , RSN1469_CHICHI_TCU011-V.AT2  
45, SRSS, 1473, -, 1.0, -, 20.8, 35.6, 0.2, "Chi-Chi_ Taiwan", 1999, "TCU018", 7.62, Reverse Oblique, 66.25, 66.25, 573.04, 0.025, 1.0, RSN1473_CHICHI_TCU018-E.AT2, RSN1473_CHICHI_TCU018-N.AT2 , RSN1473_CHICHI_TCU018-V.AT2  
46, SRSS, 1475, -, 1.0, 8.372, 12.0, 24.7, 0.2, "Chi-Chi_ Taiwan", 1999, "TCU026", 7.62, Reverse Oblique, 56.03, 56.12, 569.98, 0.025, 1.0, RSN1475_CHICHI_TCU026-E.AT2, RSN1475_CHICHI_TCU026-N.AT2 , RSN1475_CHICHI_TCU026-V.AT2  
47, SRSS, 1514, -, 1.0, -, 19.8, 36.1, 0.3, "Chi-Chi_ Taiwan", 1999, "TCU081", 7.62, Reverse Oblique, 55.48, 55.48, 430.47, 0.025, 1.0, RSN1514_CHICHI_TCU081-E.AT2, RSN1514_CHICHI_TCU081-N.AT2 , RSN1514_CHICHI_TCU081-V.AT2  
48, SRSS, 1518, -, 1.0, -, 11.7, 22.7, 0.1, "Chi-Chi_ Taiwan", 1999, "TCU085", 7.62, Reverse Oblique, 55.14, 58.09, 999.66, 0.0, 1.0, RSN1518_CHICHI_TCU085-E.AT2, RSN1518_CHICHI_TCU085-N.AT2 , RSN1518_CHICHI_TCU085-V.AT2  
49, SRSS, 1555, -, 1.0, -, 11.2, 21.7, 0.3, "Chi-Chi_ Taiwan", 1999, "TCU147", 7.62, Reverse Oblique, 70.61, 71.27, 537.92, 0.025, 1.0, RSN1555_CHICHI_TCU147-E.AT2, RSN1555_CHICHI_TCU147-N.AT2 , RSN1555_CHICHI_TCU147-V.AT2  
50, SRSS, 1557, -, 1.0, -, 22.2, 34.2, 0.2, "Chi-Chi_ Taiwan", 1999, "TTN001", 7.62, Reverse Oblique, 52.9, 56.56, 484.6, 0.0375, 1.0, RSN1557_CHICHI_TTN001-N.AT2, RSN1557_CHICHI_TTN001-W.AT2 , RSN1557_CHICHI_TTN001-V.AT2  
51, SRSS, 1558, -, 1.0, -, 23.6, 36.8, 0.0, "Chi-Chi_ Taiwan", 1999, "TTN002", 7.62, Reverse Oblique, 65.74, 68.71, 667.36, 0.0375, 1.0, RSN1558_CHICHI_TTN002-N.AT2, RSN1558_CHICHI_TTN002-W.AT2 , RSN1558_CHICHI_TTN002-V.AT2  
52, SRSS, 1560, -, 1.0, -, 30.5, 44.6, 0.1, "Chi-Chi_ Taiwan", 1999, "TTN004", 7.62, Reverse Oblique, 63.81, 66.87, 463.59, 0.05, 1.0, RSN1560_CHICHI_TTN004-N.AT2, RSN1560_CHICHI_TTN004-W.AT2 , RSN1560_CHICHI_TTN004-V.AT2  
53, SRSS, 1569, -, 1.0, -, 17.7, 32.9, 0.1, "Chi-Chi_ Taiwan", 1999, "TTN014", 7.62, Reverse Oblique, 60.3, 63.53, 533.97, 0.0375, 1.0, RSN1569_CHICHI_TTN014-E.AT2, RSN1569_CHICHI_TTN014-N.AT2 , RSN1569_CHICHI_TTN014-V.AT2  
54, SRSS, 1572, -, 1.0, -, 23.2, 36.9, 0.0, "Chi-Chi_ Taiwan", 1999, "TTN018", 7.62, Reverse Oblique, 71.72, 74.45, 573.04, 0.025, 1.0, RSN1572_CHICHI_TTN018-E.AT2, RSN1572_CHICHI_TTN018-N.AT2 , RSN1572_CHICHI_TTN018-V.AT2  
55, SRSS, 1576, -, 1.0, -, 26.3, 38.8, 0.0, "Chi-Chi_ Taiwan", 1999, "TTN024", 7.62, Reverse Oblique, 56.58, 60.01, 671.52, 0.025, 1.0, RSN1576_CHICHI_TTN024-E.AT2, RSN1576_CHICHI_TTN024-N.AT2 , RSN1576_CHICHI_TTN024-V.AT2  
56, SRSS, 1577, -, 1.0, -, 23.7, 36.7, 0.1, "Chi-Chi_ Taiwan", 1999, "TTN025", 7.62, Reverse Oblique, 62.67, 65.79, 704.96, 0.025, 1.0, RSN1577_CHICHI_TTN025-E.AT2, RSN1577_CHICHI_TTN025-N.AT2 , RSN1577_CHICHI_TTN025-V.AT2  
57, SRSS, 1578, -, 1.0, -, 20.9, 35.4, 0.0, "Chi-Chi_ Taiwan", 1999, "TTN026", 7.62, Reverse Oblique, 67.42, 70.33, 573.04, 0.025, 1.0, RSN1578_CHICHI_TTN026-E.AT2, RSN1578_CHICHI_TTN026-N.AT2 , RSN1578_CHICHI_TTN026-V.AT2  
58, SRSS, 1579, -, 1.0, -, 27.0, 39.1, 0.1, "Chi-Chi_ Taiwan", 1999, "TTN027", 7.62, Reverse Oblique, 73.45, 76.13, 428.95, 0.0375, 1.0, RSN1579_CHICHI_TTN027-E.AT2, RSN1579_CHICHI_TTN027-N.AT2 , RSN1579_CHICHI_TTN027-V.AT2  
59, SRSS, 1580, -, 1.0, -, 26.3, 41.6, 0.0, "Chi-Chi_ Taiwan", 1999, "TTN028", 7.62, Reverse Oblique, 75.89, 78.48, 616.17, 0.025, 1.0, RSN1580_CHICHI_TTN028-E.AT2, RSN1580_CHICHI_TTN028-N.AT2 , RSN1580_CHICHI_TTN028-V.AT2  
60, SRSS, 1581, -, 1.0, -, 17.3, 28.5, 0.2, "Chi-Chi_ Taiwan", 1999, "TTN031", 7.62, Reverse Oblique, 52.63, 56.3, 510.62, 0.0375, 1.0, RSN1581_CHICHI_TTN031-E.AT2, RSN1581_CHICHI_TTN031-N.AT2 , RSN1581_CHICHI_TTN031-V.AT2  
61, SRSS, 1582, -, 1.0, -, 17.2, 27.3, 0.1, "Chi-Chi_ Taiwan", 1999, "TTN032", 7.62, Reverse Oblique, 54.07, 57.65, 734.26, 0.0375, 1.0, RSN1582_CHICHI_TTN032-E.AT2, RSN1582_CHICHI_TTN032-N.AT2 , RSN1582_CHICHI_TTN032-V.AT2  
62, SRSS, 1583, -, 1.0, -, 20.7, 34.2, 0.0, "Chi-Chi_ Taiwan", 1999, "TTN033", 7.62, Reverse Oblique, 55.96, 59.43, 670.8, 0.041, 1.0, RSN1583_CHICHI_TTN033-E.AT2, RSN1583_CHICHI_TTN033-N.AT2 , RSN1583_CHICHI_TTN033-V.AT2  
63, SRSS, 1584, -, 1.0, -, 26.8, 41.5, 0.0, "Chi-Chi_ Taiwan", 1999, "TTN036", 7.62, Reverse Oblique, 77.46, 80.0, 538.69, 0.025, 1.0, RSN1584_CHICHI_TTN036-E.AT2, RSN1584_CHICHI_TTN036-N.AT2 , RSN1584_CHICHI_TTN036-V.AT2  
64, SRSS, 1587, -, 1.0, -, 21.0, 34.6, 0.1, "Chi-Chi_ Taiwan", 1999, "TTN042", 7.62, Reverse Oblique, 62.11, 65.25, 845.34, 0.0375, 1.0, RSN1587_CHICHI_TTN042-N.AT2, RSN1587_CHICHI_TTN042-W.AT2 , RSN1587_CHICHI_TTN042-V.AT2  
65, SRSS, 1588, -, 1.0, -, 25.4, 49.0, 0.2, "Chi-Chi_ Taiwan", 1999, "TTN044", 7.62, Reverse Oblique, 55.47, 58.97, 419.63, 0.0375, 1.0, RSN1588_CHICHI_TTN044-N.AT2, RSN1588_CHICHI_TTN044-W.AT2 , RSN1588_CHICHI_TTN044-V.AT2  
66, SRSS, 1589, -, 1.0, -, 29.7, 47.7, 0.1, "Chi-Chi_ Taiwan", 1999, "TTN045", 7.62, Reverse Oblique, 57.79, 61.16, 539.98, 0.0625, 1.0, RSN1589_CHICHI_TTN045-N.AT2, RSN1589_CHICHI_TTN045-W.AT2 , RSN1589_CHICHI_TTN045-V.AT2  
67, SRSS, 1590, -, 1.0, -, 19.2, 30.0, 0.2, "Chi-Chi_ Taiwan", 1999, "TTN046", 7.62, Reverse Oblique, 62.79, 65.9, 528.12, 0.0375, 1.0, RSN1590_CHICHI_TTN046-N.AT2, RSN1590_CHICHI_TTN046-W.AT2 , RSN1590_CHICHI_TTN046-V.AT2  
68, SRSS, 1591, -, 1.0, -, 31.4, 54.8, 0.0, "Chi-Chi_ Taiwan", 1999, "TTN047", 7.62, Reverse Oblique, 71.25, 74.0, 573.04, 0.0375, 1.0, RSN1591_CHICHI_TTN047-N.AT2, RSN1591_CHICHI_TTN047-W.AT2 ,  -----   
69, SRSS, 1592, -, 1.0, -, 29.7, 45.3, 0.0, "Chi-Chi_ Taiwan", 1999, "TTN048", 7.62, Reverse Oblique, 77.14, 79.69, 373.54, 0.0375, 1.0, RSN1592_CHICHI_TTN048-N.AT2, RSN1592_CHICHI_TTN048-W.AT2 , RSN1592_CHICHI_TTN048-V.AT2  

 These records were obtained from the NGA-West2 On-Line Ground-Motion Database Tool
 These records are UNSCALED, AS RECORDED
 Filename Extension: 
   ,AT2 = Acceleration
   ,VT2 = Velocity
   ,DT2 = Displacement
 The users of the NGA-West2 databases, flatfiles, models and reports are requested to acknowledge the Pacific Earthquake Engineering Research Center (PEER) in their work and publications.

 -- Scaled Spectra used in Search & Scaling --
Period (sec),Arithmetic Mean pSa (g),Arithmetic Mean + Sigma pSa (g),Arithmetic Mean - Sigma pSa (g),RSN-1185 SRSS pSa (g),RSN-1188 SRSS pSa (g),RSN-1189 SRSS pSa (g),RSN-1191 SRSS pSa (g),RSN-1207 SRSS pSa (g),RSN-1214 SRSS pSa (g),RSN-1215 SRSS pSa (g),RSN-1216 SRSS pSa (g),RSN-1217 SRSS pSa (g),RSN-1218 SRSS pSa (g),RSN-1219 SRSS pSa (g),RSN-1220 SRSS pSa (g),RSN-1226 SRSS pSa (g),RSN-1229 SRSS pSa (g),RSN-1237 SRSS pSa (g),RSN-1242 SRSS pSa (g),RSN-1256 SRSS pSa (g),RSN-1257 SRSS pSa (g),RSN-1260 SRSS pSa (g),RSN-1261 SRSS pSa (g),RSN-1263 SRSS pSa (g),RSN-1265 SRSS pSa (g),RSN-1269 SRSS pSa (g),RSN-1271 SRSS pSa (g),RSN-1290 SRSS pSa (g),RSN-1291 SRSS pSa (g),RSN-1292 SRSS pSa (g),RSN-1305 SRSS pSa (g),RSN-1321 SRSS pSa (g),RSN-1322 SRSS pSa (g),RSN-1333 SRSS pSa (g),RSN-1335 SRSS pSa (g),RSN-1338 SRSS pSa (g),RSN-1339 SRSS pSa (g),RSN-1345 SRSS pSa (g),RSN-1346 SRSS pSa (g),RSN-1347 SRSS pSa (g),RSN-1348 SRSS pSa (g),RSN-1349 SRSS pSa (g),RSN-1360 SRSS pSa (g),RSN-1361 SRSS pSa (g),RSN-1387 SRSS pSa (g),RSN-1464 SRSS pSa (g),RSN-1469 SRSS pSa (g),RSN-1473 SRSS pSa (g),RSN-1475 SRSS pSa (g),RSN-1514 SRSS pSa (g),RSN-1518 SRSS pSa (g),RSN-1555 SRSS pSa (g),RSN-1557 SRSS pSa (g),RSN-1558 SRSS pSa (g),RSN-1560 SRSS pSa (g),RSN-1569 SRSS pSa (g),RSN-1572 SRSS pSa (g),RSN-1576 SRSS pSa (g),RSN-1577 SRSS pSa (g),RSN-1578 SRSS pSa (g),RSN-1579 SRSS pSa (g),RSN-1580 SRSS pSa (g),RSN-1581 SRSS pSa (g),RSN-1582 SRSS pSa (g),RSN-1583 SRSS pSa (g),RSN-1584 SRSS pSa (g),RSN-1587 SRSS pSa (g),RSN-1588 SRSS pSa (g),RSN-1589 SRSS pSa (g),RSN-1590 SRSS pSa (g),RSN-1591 SRSS pSa (g),RSN-1592 SRSS pSa (g)
0.01,0.08897311,0.13705597,0.05775898,0.08196195,0.14588345,0.07604352,0.07910598,0.08887857,0.06670877,0.07586636,0.06739427,0.06177674,0.05159016,0.07792736,0.08907997,0.0954119,0.09940427,0.1053495,0.08096015,0.10453778,0.14635621,0.10810068,0.13399341,0.10291135,0.13766217,0.18724532,0.14672935,0.09021381,0.09298087,0.2275451,0.05363398,0.09309286,0.05389094,0.07636991,0.08631284,0.09149996,0.08552895,0.07302613,0.11056593,0.12579653,0.09684595,0.12333035,0.04307825,0.09433873,0.05236289,0.09803366,0.09695067,0.08015751,0.14973571,0.12323965,0.08323064,0.17597176,0.11457975,0.03662796,0.05874003,0.0670515,0.04181995,0.03965429,0.06033959,0.04734021,0.04708973,0.02510131,0.11461196,0.09577941,0.05042797,0.03905904,0.0820848,0.07526375,0.05226366,0.13180621,0.03641172,0.03447868
